{
"type": "FeatureCollection",
"name": "count_areas_used",
"crs": { "type": "name", "properties": { "name": "urn:ogc:def:crs:OGC:1.3:CRS84" } },
"features": [
{ "type": "Feature", "properties": { "Moor": "Bollihope", "Count": "Catterick", "Count_Type": "Core", "GWCT_Region": null, "area_ha": 74.731589616557713, "uid": 0 }, "geometry": { "type": "Polygon", "coordinates": [ [ [ -2.003335195580319, 54.714744594007584 ], [ -2.00143594918676, 54.719945860367297 ], [ -1.985930234097067, 54.719945085989174 ], [ -1.979387139942707, 54.717313141440371 ], [ -1.984648580153512, 54.714743708306003 ], [ -2.003335195580319, 54.714744594007584 ] ] ] } },
{ "type": "Feature", "properties": { "Moor": "Bollihope", "Count": "Pikestone Fell", "Count_Type": "Core", "GWCT_Region": null, "area_ha": 43.054795778900953, "uid": 1 }, "geometry": { "type": "Polygon", "coordinates": [ [ [ -1.950601449504233, 54.69678717083648 ], [ -1.951868536986781, 54.698097026862925 ], [ -1.953030683543385, 54.699445470849049 ], [ -1.935328912851972, 54.703877351129577 ], [ -1.930541166756976, 54.702035858823983 ], [ -1.950601449504233, 54.69678717083648 ] ] ] } },
{ "type": "Feature", "properties": { "Moor": "Crossgill", "Count": "Dowks", "Count_Type": "Core", "GWCT_Region": null, "area_ha": 31.247660924208304, "uid": 2 }, "geometry": { "type": "Polygon", "coordinates": [ [ [ -2.421681511648381, 54.733285266940712 ], [ -2.428902084110309, 54.741644814266387 ], [ -2.424785396728073, 54.742919216080132 ], [ -2.417565442560539, 54.734559424352106 ], [ -2.421681511648381, 54.733285266940712 ] ] ] } },
{ "type": "Feature", "properties": { "Moor": "Crossgill", "Count": "Greencastles", "Count_Type": "Core", "GWCT_Region": null, "area_ha": 26.732719999779423, "uid": 3 }, "geometry": { "type": "Polygon", "coordinates": [ [ [ -2.435025611226595, 54.746939498088814 ], [ -2.447178874772188, 54.752193554232747 ], [ -2.444402400415478, 54.754064228941864 ], [ -2.432248933350496, 54.74880989657504 ], [ -2.435025611226595, 54.746939498088814 ] ] ] } },
{ "type": "Feature", "properties": { "Moor": "Crossgill", "Count": "Pants", "Count_Type": "Core", "GWCT_Region": null, "area_ha": 29.281318183579895, "uid": 4 }, "geometry": { "type": "Polygon", "coordinates": [ [ [ -2.420562001195966, 54.712877621114018 ], [ -2.436079080361718, 54.712839097940595 ], [ -2.43604118142828, 54.71549207527999 ], [ -2.420625589190098, 54.715506252886392 ], [ -2.420562001195966, 54.712877621114018 ] ] ] } },
{ "type": "Feature", "properties": { "Moor": "Dallowgill", "Count": "Bishops", "Count_Type": "Core", "GWCT_Region": null, "area_ha": 111.88278424941113, "uid": 5 }, "geometry": { "type": "Polygon", "coordinates": [ [ [ -1.718371065989521, 54.116665866080965 ], [ -1.718410353694075, 54.110863757576539 ], [ -1.725627798061439, 54.108787813016846 ], [ -1.72668433764026, 54.108124387866305 ], [ -1.728308307609753, 54.107319557237254 ], [ -1.730741528303845, 54.106516516055343 ], [ -1.732688465047199, 54.10580746579474 ], [ -1.734639278777214, 54.104480124650259 ], [ -1.734554919439756, 54.117701346483194 ], [ -1.732692385192328, 54.117792346785471 ], [ -1.731557196454508, 54.118075176828164 ], [ -1.730584825524234, 54.118215683434755 ], [ -1.729692784169816, 54.118451480365643 ], [ -1.727671410969347, 54.118066456852318 ], [ -1.725489424986667, 54.117490797585027 ], [ -1.721929732946808, 54.11714972180544 ], [ -1.71982786462258, 54.116716821546362 ], [ -1.718371065989521, 54.116665866080965 ] ] ] } },
{ "type": "Feature", "properties": { "Moor": "Danby", "Count": "Low Moor", "Count_Type": "Core", "GWCT_Region": null, "area_ha": 88.059818314465957, "uid": 6 }, "geometry": { "type": "Polygon", "coordinates": [ [ [ -0.845541758686377, 54.483004873762454 ], [ -0.845494795843376, 54.483031336223554 ], [ -0.830959747220962, 54.482914882331464 ], [ -0.831226532549848, 54.474471121158466 ], [ -0.845710252650845, 54.474674319740707 ], [ -0.845541758686377, 54.483004873762454 ] ] ] } },
{ "type": "Feature", "properties": { "Moor": "Edmundbyers", "Count": "Waskerley", "Count_Type": "Core", "GWCT_Region": null, "area_ha": 66.803561963541711, "uid": 7 }, "geometry": { "type": "Polygon", "coordinates": [ [ [ -1.923757983882185, 54.795361897654317 ], [ -1.953691175622401, 54.801218142556131 ], [ -1.94722224597575, 54.80307113046311 ], [ -1.917144231586235, 54.797154868916429 ], [ -1.920256762200081, 54.796258301257311 ], [ -1.923757983882185, 54.795361897654317 ] ] ] } },
{ "type": "Feature", "properties": { "Moor": "Eggleston", "Count": "Blackton", "Count_Type": "Core", "GWCT_Region": null, "area_ha": 165.71707546374139, "uid": 8 }, "geometry": { "type": "Polygon", "coordinates": [ [ [ -1.962778864888214, 54.629172454415688 ], [ -2.011764604506502, 54.629245512315414 ], [ -2.017560525769647, 54.633658939046654 ], [ -1.962774772029273, 54.633654491524268 ], [ -1.962778864888214, 54.629172454415688 ] ] ] } },
{ "type": "Feature", "properties": { "Moor": "Eggleston", "Count": "Cloudlam", "Count_Type": "Core", "GWCT_Region": null, "area_ha": 135.0568041507274, "uid": 9 }, "geometry": { "type": "Polygon", "coordinates": [ [ [ -2.016483139499379, 54.64713913951244 ], [ -2.016192151711192, 54.651587248767278 ], [ -1.97555319113497, 54.651619818938208 ], [ -1.972569749336391, 54.647171110049797 ], [ -2.016483139499379, 54.64713913951244 ] ] ] } },
{ "type": "Feature", "properties": { "Moor": "Eggleston", "Count": "Ever Rigg", "Count_Type": "Core", "GWCT_Region": null, "area_ha": 149.99649496528042, "uid": 10 }, "geometry": { "type": "Polygon", "coordinates": [ [ [ -1.970526991397472, 54.638138660970725 ], [ -2.016420961642813, 54.6381411336816 ], [ -2.015954437164812, 54.642691137002828 ], [ -1.969704099018387, 54.642654444295971 ], [ -1.970526991397472, 54.638138660970725 ] ] ] } },
{ "type": "Feature", "properties": { "Moor": "Eggleston", "Count": "Neamour", "Count_Type": "Core", "GWCT_Region": null, "area_ha": 121.13426834975141, "uid": 11 }, "geometry": { "type": "Polygon", "coordinates": [ [ [ -1.965917521304735, 54.620141381905896 ], [ -1.998684457922924, 54.620180125862106 ], [ -2.005004351845553, 54.624662074366022 ], [ -1.962812247041111, 54.624656468091253 ], [ -1.965917521304735, 54.620141381905896 ] ] ] } },
{ "type": "Feature", "properties": { "Moor": "Eggleston", "Count": "North Sharnberry", "Count_Type": "Core", "GWCT_Region": null, "area_ha": 97.574097723516502, "uid": 12 }, "geometry": { "type": "Polygon", "coordinates": [ [ [ -1.978644992821, 54.674030477206863 ], [ -2.009053119647922, 54.67403202071204 ], [ -2.012159781195288, 54.678717480874688 ], [ -1.983799073631281, 54.67861514430102 ], [ -1.978644992821, 54.674030477206863 ] ] ] } },
{ "type": "Feature", "properties": { "Moor": "Eggleston", "Count": "Robin Weathers", "Count_Type": "Core", "GWCT_Region": null, "area_ha": 100.55061514970467, "uid": 13 }, "geometry": { "type": "Polygon", "coordinates": [ [ [ -1.97865437695736, 54.656136381191814 ], [ -2.012504422895038, 54.656137616323051 ], [ -2.009401537151687, 54.660518050828067 ], [ -2.009342966758328, 54.660518055358857 ], [ -1.979296355115183, 54.660516646657435 ], [ -1.97865437695736, 54.656136381191814 ] ] ] } },
{ "type": "Feature", "properties": { "Moor": "Eggleston", "Count": "South Sharnberry", "Count_Type": "Core", "GWCT_Region": null, "area_ha": 101.60845663786493, "uid": 14 }, "geometry": { "type": "Polygon", "coordinates": [ [ [ -2.010398404464199, 54.665101848035739 ], [ -2.008642039063827, 54.669550042729163 ], [ -1.977182740675041, 54.669582157213817 ], [ -1.978181043221554, 54.665134284330875 ], [ -2.010398404464199, 54.665101848035739 ] ] ] } },
{ "type": "Feature", "properties": { "Moor": "Geltsdale", "Count": "Middle", "Count_Type": "Core", "GWCT_Region": null, "area_ha": 150.69339960337385, "uid": 15 }, "geometry": { "type": "Polygon", "coordinates": [ [ [ -2.64021843384509, 54.862012449400758 ], [ -2.640388444876907, 54.866550102634399 ], [ -2.593531083022897, 54.866754151682869 ], [ -2.59352412072377, 54.862272240062659 ], [ -2.64021843384509, 54.862012449400758 ] ] ] } },
{ "type": "Feature", "properties": { "Moor": "Grinton", "Count": "Long Gill", "Count_Type": "Core", "GWCT_Region": null, "area_ha": 90.979207741628244, "uid": 16 }, "geometry": { "type": "Polygon", "coordinates": [ [ [ -1.9418774445475, 54.372427960377806 ], [ -1.941826493818434, 54.372457658945365 ], [ -1.944433873170657, 54.364255329105454 ], [ -1.960008880365136, 54.364291182491961 ], [ -1.957099210145734, 54.372434295683632 ], [ -1.9418774445475, 54.372427960377806 ] ] ] } },
{ "type": "Feature", "properties": { "Moor": "Moor House", "Count": "Behind House", "Count_Type": "Core", "GWCT_Region": null, "area_ha": 99.233124373317452, "uid": 17 }, "geometry": { "type": "Polygon", "coordinates": [ [ [ -2.373825345548603, 54.691427725431403 ], [ -2.358371857546366, 54.691474436926256 ], [ -2.358292942801806, 54.682522516177592 ], [ -2.373743030563865, 54.682475820059636 ], [ -2.373825345548603, 54.691427725431403 ] ] ] } },
{ "type": "Feature", "properties": { "Moor": "Moor House", "Count": "Trout Beck", "Count_Type": "Core", "GWCT_Region": null, "area_ha": 109.33409200481738, "uid": 18 }, "geometry": { "type": "Polygon", "coordinates": [ [ [ -2.416776035484639, 54.676046192551858 ], [ -2.420253180297037, 54.67895431280747 ], [ -2.386119850251267, 54.693806120901627 ], [ -2.382204913058423, 54.69105404807911 ], [ -2.416776035484639, 54.676046192551858 ] ] ] } },
{ "type": "Feature", "properties": { "Moor": "Ramsgill", "Count": "Raygill", "Count_Type": "Core", "GWCT_Region": null, "area_ha": 91.689951525195625, "uid": 19 }, "geometry": { "type": "Polygon", "coordinates": [ [ [ -1.87905686145253, 54.12833256090024 ], [ -1.863752671765445, 54.128316246596277 ], [ -1.863779645648478, 54.120076715104489 ], [ -1.879080799628234, 54.12009302449718 ], [ -1.87905686145253, 54.12833256090024 ] ] ] } },
{ "type": "Feature", "properties": { "Moor": "Rosedale", "Count": "Pits", "Count_Type": "Core", "GWCT_Region": null, "area_ha": 70.374999999810967, "uid": 20 }, "geometry": { "type": "Polygon", "coordinates": [ [ [ -0.902922214654959, 54.38285439973982 ], [ -0.91875535939862, 54.395579809129856 ], [ -0.916433699283297, 54.396008381952804 ], [ -0.911044065526187, 54.395959910303844 ], [ -0.898219808772406, 54.385957251241919 ], [ -0.899795365940076, 54.384623474463027 ], [ -0.902922214654959, 54.38285439973982 ] ] ] } },
{ "type": "Feature", "properties": { "Moor": "Snilesworth", "Count": "Lodge", "Count_Type": "Core", "GWCT_Region": null, "area_ha": 73.154828209431429, "uid": 21 }, "geometry": { "type": "Polygon", "coordinates": [ [ [ -1.225106841211947, 54.357492513638199 ], [ -1.225191816279119, 54.352975019252078 ], [ -1.247579214024516, 54.353116606584827 ], [ -1.247496694494523, 54.357634124405273 ], [ -1.225106841211947, 54.357492513638199 ] ] ] } },
{ "type": "Feature", "properties": { "Moor": "Stags Fell", "Count": "Beacon", "Count_Type": "Core", "GWCT_Region": null, "area_ha": 77.019154895131223, "uid": 22 }, "geometry": { "type": "Polygon", "coordinates": [ [ [ -2.155349337257583, 54.344395216721963 ], [ -2.155360539484631, 54.348547725455127 ], [ -2.155296451195329, 54.351281884343337 ], [ -2.139879945678131, 54.351310042026206 ], [ -2.139884559881091, 54.345721902336017 ], [ -2.139933372725505, 54.344418694076801 ], [ -2.155349337257583, 54.344395216721963 ] ] ] } },
{ "type": "Feature", "properties": { "Moor": "Swinton", "Count": "Potts", "Count_Type": "Core", "GWCT_Region": null, "area_ha": 97.368201288589731, "uid": 23 }, "geometry": { "type": "Polygon", "coordinates": [ [ [ -1.802354084557402, 54.198098834980385 ], [ -1.802232588715424, 54.198062967185152 ], [ -1.802274245901684, 54.189324199012297 ], [ -1.817736656922448, 54.186138363664341 ], [ -1.81769904987875, 54.194698801974283 ], [ -1.802354084557402, 54.198098834980385 ] ] ] } },
{ "type": "Feature", "properties": { "Moor": "Wemmergill", "Count": "Close House", "Count_Type": "Core", "GWCT_Region": null, "area_ha": 105.00000000038185, "uid": 24 }, "geometry": { "type": "Polygon", "coordinates": [ [ [ -2.249171404119139, 54.599670076500985 ], [ -2.295606300731231, 54.599565501261317 ], [ -2.295629105909637, 54.602710821397224 ], [ -2.249190630246875, 54.602815408721952 ], [ -2.249171404119139, 54.599670076500985 ] ] ] } },
{ "type": "Feature", "properties": { "Moor": "Wemmergill", "Count": "South Side", "Count_Type": "Core", "GWCT_Region": null, "area_ha": 152.9786640713132, "uid": 25 }, "geometry": { "type": "Polygon", "coordinates": [ [ [ -2.233649330259397, 54.570423660197179 ], [ -2.218167646824892, 54.575017902665216 ], [ -2.17175467674696, 54.575128433822286 ], [ -2.187143252577854, 54.570504610684132 ], [ -2.233649330259397, 54.570423660197179 ] ] ] } },
{ "type": "Feature", "properties": { "Moor": "Westerdale", "Count": "Tank", "Count_Type": "Core", "GWCT_Region": null, "area_ha": 84.505951975208205, "uid": 26 }, "geometry": { "type": "Polygon", "coordinates": [ [ [ -0.964312664016319, 54.39107468440357 ], [ -0.987547369032399, 54.39129363361247 ], [ -0.987742717627513, 54.392524229474517 ], [ -0.987748997536917, 54.393797131712269 ], [ -0.987499420976288, 54.396296846980249 ], [ -0.964261889380087, 54.3960778761342 ], [ -0.964312664016319, 54.39107468440357 ] ] ] } }
]
}
