{
"type": "FeatureCollection",
"name": "count_areas_used",
"crs": { "type": "name", "properties": { "name": "urn:ogc:def:crs:OGC:1.3:CRS84" } },
"features": [
{ "type": "Feature", "properties": { "Moor": "Bollihope", "Count": "Catterick", "Count_Type": "Core", "GWCT_Region": "N.DALES", "area_ha": 136.7428451960873, "uid": 0 }, "geometry": { "type": "Polygon", "coordinates": [ [ [ -1.984649081334073, 54.713395721596619 ], [ -2.003335075767807, 54.713396607253983 ], [ -2.003667195521079, 54.713410381675253 ], [ -2.003992525721087, 54.713451443236373 ], [ -2.004304413148894, 54.713518952204367 ], [ -2.004596479420691, 54.713611527975928 ], [ -2.004862751400717, 54.713727277303825 ], [ -2.005097783337626, 54.713863833005561 ], [ -2.005381439997262, 54.714101466973204 ], [ -2.005518976730999, 54.714277032015403 ], [ -2.005611851146939, 54.714462160158405 ], [ -2.005658163160374, 54.71465306516469 ], [ -2.005656964927551, 54.71484584259489 ], [ -2.00560828028401, 54.715036549659274 ], [ -2.005513104311729, 54.715221285857943 ], [ -2.003983939573013, 54.717562922040322 ], [ -2.003746492395188, 54.720113620543593 ], [ -2.003629996722174, 54.720397522617908 ], [ -2.003410684372675, 54.720660260395945 ], [ -2.003212244914658, 54.720817522104724 ], [ -2.002976727971731, 54.720956590234778 ], [ -2.002564872139804, 54.721124848420367 ], [ -2.002259605105031, 54.721206710208918 ], [ -2.00193714499295, 54.721262254600973 ], [ -2.00143600557326, 54.721293846210834 ], [ -1.985929775718379, 54.721293071794079 ], [ -1.985461797580874, 54.721265517286398 ], [ -1.985159276617013, 54.721217053920697 ], [ -1.98487076443446, 54.721145479556284 ], [ -1.984601503405533, 54.72105209474654 ], [ -1.977927190869584, 54.718362858475679 ], [ -1.977686650406898, 54.718233655631835 ], [ -1.977479890815673, 54.718086153070004 ], [ -1.977241876617945, 54.71783708666559 ], [ -1.977099561512446, 54.717564631860476 ], [ -1.977059295534295, 54.717280949212828 ], [ -1.977122873726981, 54.716998700162222 ], [ -1.977287456398347, 54.71673048190577 ], [ -1.977545696226741, 54.71648826518728 ], [ -1.977886066479889, 54.716282860086892 ], [ -1.98327562008882, 54.713655025241124 ], [ -1.98355185688267, 54.713554632584504 ], [ -1.983849612915345, 54.713477572695318 ], [ -1.984323727795058, 54.713408906652965 ], [ -1.984649081334073, 54.713395721596619 ] ] ] } },
{ "type": "Feature", "properties": { "Moor": "Bollihope", "Count": "Pikestone Fell", "Count_Type": "Core", "GWCT_Region": "N.DALES", "area_ha": 100.33878346919761, "uid": 1 }, "geometry": { "type": "Polygon", "coordinates": [ [ [ -1.952631762905239, 54.696128261533609 ], [ -1.953950897034638, 54.697494991875182 ], [ -1.95511309546382, 54.698843416040802 ], [ -1.95523878288267, 54.699019339761051 ], [ -1.955320423071866, 54.699203764534474 ], [ -1.955356979585134, 54.699488265121445 ], [ -1.955323371548302, 54.699677657207154 ], [ -1.95518766251648, 54.699951903989472 ], [ -1.955042956176086, 54.70012285569166 ], [ -1.954751749341701, 54.700352952903295 ], [ -1.954513826971074, 54.700484334969531 ], [ -1.95424631564586, 54.700594992737145 ], [ -1.953954552069826, 54.700682718555591 ], [ -1.936252343138084, 54.705114732525608 ], [ -1.935940784298364, 54.705177936601167 ], [ -1.935616918113847, 54.705214982001898 ], [ -1.935287258901166, 54.705225123586168 ], [ -1.934796412233407, 54.705189594282842 ], [ -1.934481207193205, 54.705132775031736 ], [ -1.934042260941875, 54.705000698735894 ], [ -1.931860852484703, 54.70403134555977 ], [ -1.92937970174254, 54.703204039148858 ], [ -1.929106624583552, 54.703097409067801 ], [ -1.928752417972688, 54.702898398839075 ], [ -1.928560113566772, 54.702743555536074 ], [ -1.928407473202263, 54.702574543743218 ], [ -1.928297552468978, 54.702394747341508 ], [ -1.928217338473986, 54.70211274742924 ], [ -1.92824158677339, 54.701827292130027 ], [ -1.928369205196462, 54.701551213291786 ], [ -1.928509062877785, 54.701378532755264 ], [ -1.928794028638217, 54.701145197416153 ], [ -1.929157527402852, 54.700951899135696 ], [ -1.929583219203764, 54.700807326522259 ], [ -1.949782297349326, 54.695525439897764 ], [ -1.950218336348441, 54.695457569512691 ], [ -1.950677454515596, 54.695439898885617 ], [ -1.950994384627901, 54.695458532112923 ], [ -1.951454155874754, 54.695532920645618 ], [ -1.951741880122057, 54.695612117274337 ], [ -1.952131827061536, 54.695771615308651 ], [ -1.95235692949702, 54.695902177712185 ], [ -1.952631762905239, 54.696128261533609 ] ] ] } },
{ "type": "Feature", "properties": { "Moor": "Crossgill", "Count": "Dowks", "Count_Type": "Core", "GWCT_Region": "N.DALES", "area_ha": 78.467755036690718, "uid": 2 }, "geometry": { "type": "Polygon", "coordinates": [ [ [ -2.423765180460923, 54.732682688411955 ], [ -2.430986073491905, 54.741042111806088 ], [ -2.431157690562048, 54.741307226342762 ], [ -2.4312298203948, 54.741587231854403 ], [ -2.431220878016969, 54.741776086773903 ], [ -2.431166385562417, 54.741962363430787 ], [ -2.431001820613619, 54.742228971210466 ], [ -2.43074463710314, 54.742469813570153 ], [ -2.430527173897205, 54.742610753490716 ], [ -2.430277785672124, 54.742732718584719 ], [ -2.430001371429511, 54.742833312831422 ], [ -2.425884598251304, 54.744107752288521 ], [ -2.425414273447383, 54.744217156851974 ], [ -2.424914179236142, 54.744265124285626 ], [ -2.42457591056921, 54.744261725642843 ], [ -2.42424205895381, 54.744230021684331 ], [ -2.423919663717084, 54.744170680894364 ], [ -2.423615522557174, 54.744084954482446 ], [ -2.42333604817771, 54.743974649993881 ], [ -2.423087133050991, 54.743842093187851 ], [ -2.422782335157481, 54.743607762742037 ], [ -2.415482258896811, 54.73516169262308 ], [ -2.415310505390779, 54.734896639152204 ], [ -2.415238290200683, 54.734616666446712 ], [ -2.415268801674905, 54.734334143472502 ], [ -2.415400689769721, 54.734061551610559 ], [ -2.415628126057717, 54.73381093326028 ], [ -2.415828031562144, 54.733661584354991 ], [ -2.416062081462759, 54.733529890606661 ], [ -2.41648800082567, 54.733364271129261 ], [ -2.420582726406352, 54.732096690315593 ], [ -2.420854328859985, 54.732025152062086 ], [ -2.421285729687283, 54.731956896473839 ], [ -2.421749812767585, 54.731937876113456 ], [ -2.422082627072654, 54.731957432482432 ], [ -2.422564235712217, 54.732037835611791 ], [ -2.422863910415327, 54.732123871410714 ], [ -2.42326590243703, 54.732297147737825 ], [ -2.423494157083834, 54.732438672968556 ], [ -2.423765180460923, 54.732682688411955 ] ] ] } },
{ "type": "Feature", "properties": { "Moor": "Crossgill", "Count": "Greencastles", "Count_Type": "Core", "GWCT_Region": "N.DALES", "area_ha": 71.264071983855331, "uid": 3 }, "geometry": { "type": "Polygon", "coordinates": [ [ [ -2.436420698003042, 54.74585982732269 ], [ -2.448573817362556, 54.751113745253079 ], [ -2.448938012718627, 54.751309429932718 ], [ -2.449222176463719, 54.751545339962867 ], [ -2.449360603178776, 54.75171972164361 ], [ -2.449454820816865, 54.751903705365805 ], [ -2.449509332445688, 54.752189494768849 ], [ -2.449486722188963, 54.752380933742899 ], [ -2.449417344994345, 54.752568576073188 ], [ -2.449228917728241, 54.752834643004817 ], [ -2.448947213832767, 54.753071542171014 ], [ -2.44617076131571, 54.754942256901913 ], [ -2.445806653474762, 54.755140037337604 ], [ -2.445526912347172, 54.755244907642542 ], [ -2.445066080098708, 54.75535638336693 ], [ -2.444740544530069, 54.75539792998908 ], [ -2.444408090080054, 54.755412189147272 ], [ -2.444075519195188, 54.755398869079499 ], [ -2.443749636705717, 54.755358242330324 ], [ -2.4434371105493, 54.755291140172559 ], [ -2.44314433529973, 54.75519893559381 ], [ -2.430854142688438, 54.749889133507217 ], [ -2.430489856791836, 54.749693553656783 ], [ -2.430205644937624, 54.749457701780329 ], [ -2.4300672214165, 54.749283341096159 ], [ -2.429973040041115, 54.749099370945629 ], [ -2.429918647232317, 54.748813601813339 ], [ -2.429941377263526, 54.74862218563878 ], [ -2.430010901727948, 54.748434580716989 ], [ -2.430199586505256, 54.748168609301942 ], [ -2.430503795976472, 54.747916518200903 ], [ -2.433365418911797, 54.745993648176274 ], [ -2.433603202601662, 54.745871824226647 ], [ -2.434007914413929, 54.745726893615775 ], [ -2.434455088639427, 54.745632560927817 ], [ -2.434926067216436, 54.745592762085401 ], [ -2.435244766919908, 54.745597506389586 ], [ -2.435713278675626, 54.745651568894161 ], [ -2.436152885001387, 54.745759771713566 ], [ -2.436420698003042, 54.74585982732269 ] ] ] } },
{ "type": "Feature", "properties": { "Moor": "Crossgill", "Count": "Pants", "Count_Type": "Core", "GWCT_Region": "N.DALES", "area_ha": 74.984764615468265, "uid": 4 }, "geometry": { "type": "Polygon", "coordinates": [ [ [ -2.420463026222341, 54.711530864367496 ], [ -2.436068840202163, 54.711491135927652 ], [ -2.436567883406895, 54.711521167110618 ], [ -2.437044226913702, 54.711612405710554 ], [ -2.437475749508409, 54.711760614677175 ], [ -2.437728519719303, 54.711887771959724 ], [ -2.437947171665351, 54.712034608324231 ], [ -2.438127182177718, 54.712198086483674 ], [ -2.438264827242899, 54.712374824880172 ], [ -2.438385884555467, 54.71265674165943 ], [ -2.438407213926644, 54.712850223143946 ], [ -2.438369467282952, 54.715503201487849 ], [ -2.438312877070032, 54.71578768283841 ], [ -2.438153762822957, 54.716058824183719 ], [ -2.437899303645216, 54.716304388524563 ], [ -2.437682202588366, 54.716448352565109 ], [ -2.437432114752995, 54.716573095245863 ], [ -2.437154066982196, 54.716676109061282 ], [ -2.436853648289327, 54.716755323269389 ], [ -2.43653689749747, 54.716809145527321 ], [ -2.436210181825258, 54.716836493908716 ], [ -2.420629025562979, 54.716853685701714 ], [ -2.420137898453336, 54.716823989834509 ], [ -2.419668665087336, 54.716734948609002 ], [ -2.419242470529531, 54.716590574523892 ], [ -2.418878519863935, 54.716397373511732 ], [ -2.418678703330431, 54.716245666792076 ], [ -2.418517922577901, 54.716079135887988 ], [ -2.418356770466468, 54.715808920093515 ], [ -2.4182972259656, 54.71551431331023 ], [ -2.418237452125251, 54.712802016799358 ], [ -2.418315939209761, 54.71252271876012 ], [ -2.418423646615285, 54.712344472032598 ], [ -2.418573319171949, 54.712176688981501 ], [ -2.418869874942701, 54.711951764451712 ], [ -2.419240993532226, 54.711767639736571 ], [ -2.419521867954744, 54.711671648452182 ], [ -2.419979616161442, 54.711572500570135 ], [ -2.420463026222341, 54.711530864367496 ] ] ] } },
{ "type": "Feature", "properties": { "Moor": "Dallowgill", "Count": "Bishops", "Count_Type": "Core", "GWCT_Region": "S.DALES/PEAK", "area_ha": 111.90798296687815, "uid": 5 }, "geometry": { "type": "Polygon", "coordinates": [ [ [ -1.721929733651181, 54.117149721579558 ], [ -1.719827863927512, 54.116716821274537 ], [ -1.718370744591316, 54.116713424055433 ], [ -1.718410354383272, 54.110863757323678 ], [ -1.725627797599647, 54.108787812752347 ], [ -1.726684337114548, 54.108124387435453 ], [ -1.728308307924437, 54.107319556927337 ], [ -1.73074152835008, 54.106516515863909 ], [ -1.732688465793546, 54.105807466132873 ], [ -1.734639278699806, 54.104480124654039 ], [ -1.734554919360918, 54.11770134670715 ], [ -1.732692384760965, 54.117792346518783 ], [ -1.731557195738002, 54.118075176888922 ], [ -1.730584825222644, 54.118215683211027 ], [ -1.72969278462853, 54.118451480267211 ], [ -1.727671410375267, 54.118066456913361 ], [ -1.725489425702798, 54.117490797891669 ], [ -1.721929733651181, 54.117149721579558 ] ] ] } },
{ "type": "Feature", "properties": { "Moor": "Danby", "Count": "Glaisdale", "Count_Type": "Core", "GWCT_Region": "NYM", "area_ha": 54.459650827307641, "uid": 6 }, "geometry": { "type": "Polygon", "coordinates": [ [ [ -0.866908308515508, 54.420462689423097 ], [ -0.867653635450851, 54.420452576611943 ], [ -0.868097665898817, 54.420380101234699 ], [ -0.86853795287293, 54.420206885093862 ], [ -0.869204743431468, 54.419893282247912 ], [ -0.870176276585946, 54.419476755622057 ], [ -0.870587406557745, 54.419217756922833 ], [ -0.870671758734919, 54.419191311270751 ], [ -0.870967139411965, 54.418994563853722 ], [ -0.871474903194718, 54.418617394088535 ], [ -0.871956503319487, 54.418362215341361 ], [ -0.872101429762106, 54.418265397974409 ], [ -0.872305855750388, 54.418058298259822 ], [ -0.872369176046371, 54.417967052366443 ], [ -0.872374826832335, 54.417826224739457 ], [ -0.872482336951834, 54.417721732801212 ], [ -0.872674701825455, 54.417637391851407 ], [ -0.872743598178161, 54.417580399143851 ], [ -0.872835458965045, 54.417557188380911 ], [ -0.873186197448382, 54.417400220605835 ], [ -0.87353027785627, 54.417169087115653 ], [ -0.8737339622255, 54.416988579539016 ], [ -0.87377777540665, 54.416897061180229 ], [ -0.873882315415983, 54.416766387350215 ], [ -0.873936520579961, 54.416730157651671 ], [ -0.873984996155147, 54.416563000929024 ], [ -0.874018775954087, 54.416542184161848 ], [ -0.874014245339878, 54.416467439835465 ], [ -0.874053170966636, 54.416341885677333 ], [ -0.874096459829963, 54.416283231705464 ], [ -0.874221551363306, 54.415918950588598 ], [ -0.874273412557121, 54.415690791498797 ], [ -0.874274978749746, 54.415532193196427 ], [ -0.874298538890158, 54.415487084746566 ], [ -0.874285004883984, 54.415255858162965 ], [ -0.873893398480499, 54.414836033816165 ], [ -0.873563653187777, 54.413868949250507 ], [ -0.873140363927591, 54.412990385194682 ], [ -0.871178065826064, 54.411440277360661 ], [ -0.873638165218879, 54.410261429280276 ], [ -0.873721219367498, 54.41029139086271 ], [ -0.873942853925203, 54.410554347981297 ], [ -0.875889868831164, 54.412322349743505 ], [ -0.876372348058356, 54.412855957363838 ], [ -0.87686161763761, 54.413899415390652 ], [ -0.877064987512036, 54.41464303776506 ], [ -0.877081965805523, 54.415082920273278 ], [ -0.877016507980865, 54.416113971208141 ], [ -0.876749142970177, 54.417256701157967 ], [ -0.876566900373947, 54.417861439063415 ], [ -0.876202677287233, 54.418454819686431 ], [ -0.875704405159312, 54.418950309286863 ], [ -0.875115595910547, 54.419423208460927 ], [ -0.874557816764458, 54.419821496765167 ], [ -0.873629838321663, 54.420424112842369 ], [ -0.871014028296811, 54.421837256253959 ], [ -0.87034232155523, 54.422157146766644 ], [ -0.869441320513695, 54.422528040727613 ], [ -0.869219922410115, 54.422593619215213 ], [ -0.86897440236526, 54.422632394316508 ], [ -0.868609289171419, 54.422650720380723 ], [ -0.867462642651436, 54.422763196206994 ], [ -0.867009076696344, 54.42283384172697 ], [ -0.866567135176696, 54.422933587642355 ], [ -0.866047631057276, 54.423141326792553 ], [ -0.864829494502503, 54.423890948274369 ], [ -0.862820774366091, 54.42505834688528 ], [ -0.861695466183061, 54.425743577939997 ], [ -0.861281798614671, 54.426017527508208 ], [ -0.861029563640837, 54.426148033236927 ], [ -0.860875209576886, 54.426260079578029 ], [ -0.859895682984617, 54.427552191442835 ], [ -0.85892919115842, 54.428764383169288 ], [ -0.855851607688711, 54.427161995865852 ], [ -0.862343480058263, 54.42234747519187 ], [ -0.863839276471998, 54.42143923743334 ], [ -0.865216955890914, 54.420804583819546 ], [ -0.865516856433117, 54.420784044260635 ], [ -0.865572792245604, 54.420764301587759 ], [ -0.866241606305415, 54.420654042160713 ], [ -0.866398028352886, 54.420613708688713 ], [ -0.866587551301775, 54.420593952554171 ], [ -0.866867068757065, 54.420500937574793 ], [ -0.866908308515508, 54.420462689423097 ] ] ] } },
{ "type": "Feature", "properties": { "Moor": "Danby", "Count": "Low Moor", "Count_Type": "Core", "GWCT_Region": "NYM", "area_ha": 87.92038092265264, "uid": 7 }, "geometry": { "type": "Polygon", "coordinates": [ [ [ -0.830959747096872, 54.482914882349149 ], [ -0.831226532825419, 54.474471121009266 ], [ -0.845710252041674, 54.474674319891399 ], [ -0.845494795940155, 54.483031336441414 ], [ -0.830959747096872, 54.482914882349149 ] ] ] } },
{ "type": "Feature", "properties": { "Moor": "Edmundbyers", "Count": "Waskerley", "Count_Type": "Core", "GWCT_Region": "N.DALES", "area_ha": 148.40393508112811, "uid": 8 }, "geometry": { "type": "Polygon", "coordinates": [ [ [ -1.924506712169776, 54.794085235911567 ], [ -1.954599260100142, 54.799976453062278 ], [ -1.955038201053655, 54.800117494586736 ], [ -1.955414727293495, 54.800309538065797 ], [ -1.95571139124223, 54.800543685039507 ], [ -1.95585783745311, 54.800717881693046 ], [ -1.955992968290892, 54.800997352961403 ], [ -1.956023984348685, 54.801190177362699 ], [ -1.955980302517997, 54.801479247853962 ], [ -1.955830542879749, 54.801756219898976 ], [ -1.955675003017911, 54.801927766993913 ], [ -1.955366153277446, 54.802156600200249 ], [ -1.954979681515589, 54.802341945749198 ], [ -1.954687630379936, 54.802437012313838 ], [ -1.95107555587612, 54.803248428110919 ], [ -1.948478646907507, 54.804207021880352 ], [ -1.948196366023556, 54.804296022912339 ], [ -1.947895581834551, 54.80436175876833 ], [ -1.947582007650738, 54.804402980798692 ], [ -1.947100733254925, 54.804417268749255 ], [ -1.946781495441927, 54.804394833479058 ], [ -1.946470629740249, 54.804347256128807 ], [ -1.916389460170329, 54.798430351832614 ], [ -1.91608377388453, 54.798355572358403 ], [ -1.915667317645117, 54.798198426581564 ], [ -1.915425927977884, 54.798066772287463 ], [ -1.91521932961603, 54.797916654621815 ], [ -1.914983603631921, 54.797663596959239 ], [ -1.914846102878973, 54.797387417067981 ], [ -1.914813077403526, 54.797100672702499 ], [ -1.91485004171505, 54.796910077191683 ], [ -1.914992090438975, 54.796634667121417 ], [ -1.915231971158024, 54.796382918445723 ], [ -1.915441025330074, 54.796233944000271 ], [ -1.915817741733101, 54.796046297658528 ], [ -1.916103559941462, 54.795948770843559 ], [ -1.919215799012675, 54.795051954539097 ], [ -1.922950316512003, 54.794097287229242 ], [ -1.923234557432082, 54.7940482945165 ], [ -1.923675308010851, 54.794014776022181 ], [ -1.924179901531389, 54.794036157059573 ], [ -1.924506712169776, 54.794085235911567 ] ] ] } },
{ "type": "Feature", "properties": { "Moor": "Eggleston", "Count": "Between counts", "Count_Type": "Strip", "GWCT_Region": "N.DALES", "area_ha": 370.93777341678572, "uid": 9 }, "geometry": { "type": "MultiPolygon", "coordinates": [ [ [ [ -2.019592859316866, 54.633005399021684 ], [ -2.019626677557589, 54.633044027224059 ], [ -2.019554174148854, 54.632968163817928 ], [ -2.019592859316866, 54.633005399021684 ] ] ], [ [ [ -2.019669103649227, 54.633092487453027 ], [ -2.019733855695843, 54.633181967336789 ], [ -2.01965378690611, 54.633074992269968 ], [ -2.019669103649227, 54.633092487453027 ] ] ], [ [ [ -2.019796395288843, 54.633293903670015 ], [ -2.019734209734977, 54.633182456576996 ], [ -2.019788038302992, 54.633275114038909 ], [ -2.019796395288843, 54.633293903670015 ] ] ], [ [ [ -2.019843429237381, 54.633412165835395 ], [ -2.019811318610775, 54.633327456836838 ], [ -2.019830104029799, 54.633369693350012 ], [ -2.019843429237381, 54.633412165835395 ] ] ], [ [ [ -2.019878087575877, 54.633561608061193 ], [ -2.019854164532899, 54.633446383224033 ], [ -2.019860253634829, 54.633465791435668 ], [ -2.019878087575877, 54.633561608061193 ] ] ], [ [ [ -2.019882990861877, 54.633679801611265 ], [ -2.019878292518714, 54.633562709157339 ], [ -2.019884234346075, 54.633660520394351 ], [ -2.019882990861877, 54.633679801611265 ] ] ], [ [ [ -2.019869808313537, 54.633800887038689 ], [ -2.019880759959247, 54.633714393494785 ], [ -2.019877939369348, 54.633758128854616 ], [ -2.019869808313537, 54.633800887038689 ] ] ], [ [ [ -2.018805950312204, 54.647190208324268 ], [ -2.018803290498813, 54.647066216932807 ], [ -2.018807618266057, 54.647138796048246 ], [ -2.018805950312204, 54.647190208324268 ] ] ], [ [ [ -2.018504157756016, 54.651728123550271 ], [ -2.018498256474367, 54.651752748029679 ], [ -2.018515209423795, 54.651638372948 ], [ -2.018504157756016, 54.651728123550271 ] ] ], [ [ [ -2.018460693856266, 54.65187894729312 ], [ -2.018490870886937, 54.651783566080049 ], [ -2.018482788884941, 54.651817290025114 ], [ -2.018460693856266, 54.65187894729312 ] ] ], [ [ [ -2.01845375340453, 54.651898314926768 ], [ -2.018409542354745, 54.651992152137872 ], [ -2.018400042814302, 54.652007799947825 ], [ -2.01845375340453, 54.651898314926768 ] ] ], [ [ [ -2.018357991265149, 54.652077067844857 ], [ -2.018325661327541, 54.652120764026044 ], [ -2.018383681127339, 54.652034751176132 ], [ -2.018357991265149, 54.652077067844857 ] ] ], [ [ [ -2.012722928513297, 54.665130163270256 ], [ -2.012717857166607, 54.665011373291819 ], [ -2.012720343461562, 54.665027271162479 ], [ -2.012722928513297, 54.665130163270256 ] ] ], [ [ [ -2.014394901013913, 54.678345904817277 ], [ -2.014331254805498, 54.678233976057619 ], [ -2.014386086201024, 54.678326568204177 ], [ -2.014394901013913, 54.678345904817277 ] ] ], [ [ [ -2.014443425676085, 54.678465204534263 ], [ -2.014409964213435, 54.678378948158709 ], [ -2.014428831467108, 54.678420336173232 ], [ -2.014443425676085, 54.678465204534263 ] ] ], [ [ [ -2.01445407921732, 54.678497957662806 ], [ -2.014459831496919, 54.678515642384767 ], [ -2.014479096690327, 54.678614329971182 ], [ -2.01445407921732, 54.678497957662806 ] ] ], [ [ [ -2.014486015279437, 54.678708890788386 ], [ -2.014484826214654, 54.67873216854268 ], [ -2.014479878511659, 54.678625015649466 ], [ -2.014486015279437, 54.678708890788386 ] ] ], [ [ [ -2.014472207534002, 54.678856189446037 ], [ -2.014483032786843, 54.678767277573321 ], [ -2.014481063325278, 54.678805832657957 ], [ -2.014472207534002, 54.678856189446037 ] ] ], [ [ [ -2.014466695493029, 54.678887532564758 ], [ -2.014464095427085, 54.678902317302899 ], [ -2.014432993805789, 54.679002946455597 ], [ -2.014466695493029, 54.678887532564758 ] ] ], [ [ [ -2.014394524540699, 54.679091922076864 ], [ -2.01438014961971, 54.679117274516408 ], [ -2.014425001102522, 54.679021432824158 ], [ -2.014394524540699, 54.679091922076864 ] ] ], [ [ [ -2.014305435626705, 54.679236089371884 ], [ -2.01436093236543, 54.679151167121994 ], [ -2.014342281522403, 54.67918406071648 ], [ -2.014305435626705, 54.679236089371884 ] ] ], [ [ [ -2.014286466762451, 54.679262874510478 ], [ -2.014278740639764, 54.679273784233672 ], [ -2.014197018908568, 54.679367706238878 ], [ -2.014286466762451, 54.679262874510478 ] ] ], [ [ [ -2.014119137477114, 54.679444142957173 ], [ -2.014089464516782, 54.679468991922 ], [ -2.014175471657113, 54.679388853819148 ], [ -2.014119137477114, 54.679444142957173 ] ] ], [ [ [ -2.014023901272867, 54.679523896277907 ], [ -2.013955950265838, 54.679572860522789 ], [ -2.014054239999102, 54.679498489866887 ], [ -2.014023901272867, 54.679523896277907 ] ] ], [ [ [ -2.013790839783193, 54.679678138281453 ], [ -2.013928509993524, 54.679592633433593 ], [ -2.013805021817425, 54.679670488685673 ], [ -2.013790839783193, 54.679678138281453 ] ] ], [ [ [ -2.013636912017683, 54.679757832922327 ], [ -2.013755010417872, 54.679697464132047 ], [ -2.013682511548244, 54.679736568903543 ], [ -2.013636912017683, 54.679757832922327 ] ] ], [ [ [ -2.013451477601977, 54.679837757839074 ], [ -2.013588877297004, 54.679780232478741 ], [ -2.013552118441869, 54.679797373842675 ], [ -2.013451477601977, 54.679837757839074 ] ] ], [ [ [ -2.013248343871927, 54.679908293610055 ], [ -2.013422766400908, 54.679849278708872 ], [ -2.013270420978806, 54.679901927723726 ], [ -2.013248343871927, 54.679908293610055 ] ] ], [ [ [ -2.013060191908264, 54.679959508744254 ], [ -2.013200340315916, 54.679922135311493 ], [ -2.013120574871304, 54.679945135408573 ], [ -2.013060191908264, 54.679959508744254 ] ] ], [ [ [ -2.012832027239588, 54.68000747910456 ], [ -2.013003945737863, 54.679972897336981 ], [ -2.012965754875023, 54.679981988103243 ], [ -2.012832027239588, 54.68000747910456 ] ] ], [ [ [ -1.96572395909942, 54.618798856786867 ], [ -1.965922796186156, 54.618793377227526 ], [ -1.998688649240266, 54.61883211962477 ], [ -1.998891206585899, 54.618838105173459 ], [ -1.96572395909942, 54.618798856786867 ] ] ], [ [ [ -1.999118456366395, 54.61885646253431 ], [ -1.998945145681805, 54.618841363498348 ], [ -1.999003292456397, 54.618844875971 ], [ -1.999118456366395, 54.61885646253431 ] ] ], [ [ [ -1.999148399884215, 54.618859475112416 ], [ -1.999312057684482, 54.618882250162585 ], [ -1.99934339855376, 54.618888027051035 ], [ -1.999148399884215, 54.618859475112416 ] ] ], [ [ [ -1.999462450084732, 54.618909971069968 ], [ -1.999548078020132, 54.618929559090901 ], [ -1.99939226385551, 54.618897034101415 ], [ -1.999462450084732, 54.618909971069968 ] ] ], [ [ [ -1.999589311435341, 54.618938991509999 ], [ -1.999609252618551, 54.61894355318222 ], [ -1.999770479594286, 54.61898892858207 ], [ -1.999589311435341, 54.618938991509999 ] ] ], [ [ [ -1.999951022249858, 54.619051049810764 ], [ -1.999809131651903, 54.619001515788476 ], [ -1.999889398198254, 54.619027654865221 ], [ -1.999951022249858, 54.619051049810764 ] ] ], [ [ [ -2.000155273441338, 54.61913700900088 ], [ -1.999993930391748, 54.61906733941678 ], [ -2.000021448546273, 54.619077786367804 ], [ -2.000155273441338, 54.61913700900088 ] ] ], [ [ [ -2.000307889155301, 54.619216988786519 ], [ -2.000178220942067, 54.619148576191201 ], [ -2.000266460466837, 54.619193055154341 ], [ -2.000307889155301, 54.619216988786519 ] ] ], [ [ [ -2.004555491896885, 54.622215209757449 ], [ -2.000482305488517, 54.619326522341517 ], [ -2.000346327016453, 54.619239194559761 ], [ -2.000482306388106, 54.619326522806261 ], [ -2.004555491896885, 54.622215209757449 ] ] ], [ [ [ -2.019523310515518, 54.632938456931008 ], [ -2.01345991346257, 54.62832372813493 ], [ -2.0131030759908, 54.6281436577436 ], [ -2.012690786812005, 54.628009238955919 ], [ -2.012469114797592, 54.627960969944041 ], [ -2.012006201506849, 54.627904813636775 ], [ -1.962785647281729, 54.627824454057354 ], [ -1.962331569241022, 54.627849664440539 ], [ -1.961894731033082, 54.627925861573438 ], [ -1.961491969623523, 54.628050108628209 ], [ -1.961138808922428, 54.628217616778549 ], [ -1.96084886154502, 54.628421929727722 ], [ -1.960633304150978, 54.62865517249945 ], [ -1.960500446578041, 54.628908354913392 ], [ -1.960455419869324, 54.629171619156331 ], [ -1.960489043141824, 54.624655737326428 ], [ -1.960497260143964, 54.624548508581903 ], [ -1.960502518704623, 54.624801430131534 ], [ -1.960594696471717, 54.625058368264312 ], [ -1.960770932683148, 54.625300073015566 ], [ -1.961024548290304, 54.62551738225001 ], [ -1.961345930644512, 54.625702058439842 ], [ -1.961722897770087, 54.625847100974511 ], [ -1.962141160123, 54.625947011590227 ], [ -1.962584862331944, 54.625998002847773 ], [ -2.005004517302803, 54.626010081265882 ], [ -2.005232086952482, 54.626003589206199 ], [ -2.005678486798143, 54.62595208304429 ], [ -2.006099011748764, 54.625851066459255 ], [ -2.006294471135825, 54.625783132757476 ], [ -2.006646401844099, 54.625615675393661 ], [ -2.006799488275444, 54.625517762427783 ], [ -2.00705255577027, 54.625298267723764 ], [ -2.007150103041018, 54.625178797160473 ], [ -2.007227012084894, 54.625054356968164 ], [ -2.007316163002577, 54.624795391503099 ], [ -2.007327547836725, 54.624663356960767 ], [ -2.00728339088864, 54.624400521494785 ], [ -2.007151768886887, 54.624147724838892 ], [ -2.007054610863866, 54.624028148264799 ], [ -2.00678611916954, 54.623796929580465 ], [ -2.013529798193283, 54.62836899556455 ], [ -2.013603333317754, 54.628421449773526 ], [ -2.0194088163916, 54.632841955659217 ], [ -2.019523310515518, 54.632938456931008 ] ] ], [ [ [ -2.018727057042845, 54.646787349303501 ], [ -2.018560467627564, 54.646534288502423 ], [ -2.018310001472845, 54.646305651315281 ], [ -2.017985772931271, 54.646110669403164 ], [ -2.017799986447697, 54.646028321588396 ], [ -2.01760087409246, 54.645957215411165 ], [ -2.017170846127035, 54.645851485163526 ], [ -2.016944282228801, 54.645817931024389 ], [ -2.016479494915568, 54.645791139018051 ], [ -1.972567557732372, 54.645823108536831 ], [ -1.972119322955854, 54.645848658836911 ], [ -1.97168799825182, 54.645923860297067 ], [ -1.971289776750694, 54.646045889666929 ], [ -1.970939609137396, 54.64621016562711 ], [ -1.97065064245163, 54.646410520741064 ], [ -1.970532601563777, 54.646521922834602 ], [ -1.97035494772979, 54.646761945520922 ], [ -1.970260448308042, 54.647017331271783 ], [ -1.970252652875964, 54.647278491575086 ], [ -1.970331855769554, 54.647535620929126 ], [ -1.973481547259334, 54.652231485542828 ], [ -1.973732646656097, 54.652458115777193 ], [ -1.974056447758028, 54.652651271315861 ], [ -1.97444002071669, 54.652803238626184 ], [ -1.974649512055946, 54.652861808828462 ], [ -1.975093441841053, 54.652941197100709 ], [ -1.975555731920533, 54.65296781895718 ], [ -2.016196037465879, 54.652935247737723 ], [ -2.016418165013308, 54.65292886407898 ], [ -2.016854200285576, 54.652879432689062 ], [ -2.017266053585965, 54.652782806040733 ], [ -2.017458161186469, 54.652717833197968 ], [ -2.017638681845917, 54.652642513502322 ], [ -2.017958475089109, 54.652463679330943 ], [ -2.01809482104695, 54.652361801584654 ], [ -2.018306888839848, 54.652146136314421 ], [ -2.014633243185684, 54.656680609070982 ], [ -2.01478600001619, 54.656396922784069 ], [ -2.014818815871049, 54.65626620708445 ], [ -2.014817674167106, 54.656002339000018 ], [ -2.014783728001908, 54.655871720385683 ], [ -2.014650712764439, 54.655619373149356 ], [ -2.014435460255926, 54.655386884128944 ], [ -2.014299457593321, 54.655280909512378 ], [ -2.013977216989346, 54.655094578061465 ], [ -2.013598546940639, 54.654948212506021 ], [ -2.013392515229437, 54.654891835541932 ], [ -2.012956930765993, 54.65481539457992 ], [ -2.012504009018192, 54.654789616201008 ], [ -1.97842898280897, 54.654794730584726 ], [ -1.977985314026456, 54.654845403928505 ], [ -1.977566953526262, 54.65494491349591 ], [ -1.977372263416935, 54.655011874304989 ], [ -1.977021073761414, 54.655177040324688 ], [ -1.976731667673078, 54.655378497778919 ], [ -1.976514993689048, 54.65560862600266 ], [ -1.976379249491116, 54.655858719646943 ], [ -1.976329571652106, 54.65611931794178 ], [ -1.976366873039153, 54.65644945532064 ], [ -1.973386518105186, 54.652108402911658 ], [ -1.970398301359274, 54.647652151539575 ], [ -1.967522808619725, 54.643119891342465 ], [ -1.967478082790103, 54.643041568373697 ], [ -1.967648600409548, 54.643283663006621 ], [ -1.967900685908456, 54.643504818526338 ], [ -1.96805360833272, 54.643603550276453 ], [ -1.968405815372646, 54.643772545522587 ], [ -1.968808243311059, 54.643898292386737 ], [ -1.969023485401491, 54.643943356632853 ], [ -1.969245325533566, 54.643975926642298 ], [ -1.969700154539107, 54.644002445165533 ], [ -2.015952022861322, 54.644039139122718 ], [ -2.01641761385093, 54.644012102684577 ], [ -2.016864431351438, 54.643931528292974 ], [ -2.017075090451927, 54.643872103209716 ], [ -2.017460231175491, 54.6437179895497 ], [ -2.017630800438883, 54.643624866559108 ], [ -2.017919291231195, 54.643411208619966 ], [ -2.018034282432128, 54.64329284410303 ], [ -2.018199928606522, 54.643039043680751 ], [ -2.018248901324996, 54.642906185925924 ], [ -2.01874083324072, 54.638221131771161 ], [ -2.018743375384654, 54.638091906069469 ], [ -2.018684595658901, 54.637835996217291 ], [ -2.01854278699787, 54.637591279567587 ], [ -2.018323152255323, 54.637366732123631 ], [ -2.018186563861112, 54.63726463302546 ], [ -2.017866110789603, 54.637085467235408 ], [ -2.017685191444058, 54.637010047175288 ], [ -2.017492653280483, 54.636945022924237 ], [ -2.017079889217501, 54.636848451212799 ], [ -2.016642957763738, 54.6367992940623 ], [ -2.016420418495745, 54.636793129550796 ], [ -1.970527966260406, 54.63679065696131 ], [ -1.970076616307313, 54.636816213342975 ], [ -1.969856316121275, 54.636848012927182 ], [ -1.969436956124754, 54.636948140579626 ], [ -1.969059102768026, 54.637093603964651 ], [ -1.96873714463751, 54.637278864058253 ], [ -1.96848334238336, 54.637496866354233 ], [ -1.96830736181705, 54.637739309437684 ], [ -1.968215905727487, 54.637996961047719 ], [ -1.968099058081882, 54.638638047489941 ], [ -1.961132121445498, 54.634607879055629 ], [ -1.961482729290206, 54.634774912734528 ], [ -1.961884362457073, 54.634899608815466 ], [ -1.962320216661197, 54.634976454416467 ], [ -1.962773540852301, 54.63500249613039 ], [ -2.017561106561481, 54.635006943871801 ], [ -2.018007231793747, 54.6349818021218 ], [ -2.018225081879736, 54.634950643370786 ], [ -2.018640219966335, 54.634852600006781 ], [ -2.019015184566533, 54.634710145400653 ], [ -2.019336024480246, 54.634528580002666 ], [ -2.019590802825053, 54.634314659418131 ], [ -2.019770041153542, 54.634076342996245 ], [ -2.019863225518947, 54.633835503429296 ], [ -2.018734830154922, 54.638279724338346 ], [ -2.018283421422268, 54.642684755310491 ], [ -2.018802404847689, 54.647051364028222 ], [ -2.018727057042845, 54.646787349303501 ] ] ], [ [ [ -2.012215512476807, 54.664260640099947 ], [ -2.011891431041281, 54.66406836654204 ], [ -2.011507980673235, 54.663917190909316 ], [ -2.011298681000947, 54.663858964223543 ], [ -2.010855341230099, 54.663780128690668 ], [ -2.010393832137699, 54.66375385250273 ], [ -1.978177537588879, 54.66378628775572 ], [ -1.977954666568827, 54.663792688503193 ], [ -1.977517210159012, 54.663842376399217 ], [ -1.977104145493586, 54.663939536932041 ], [ -1.976730650414255, 54.664080600040336 ], [ -1.976410449190418, 54.664260382464448 ], [ -1.976155308284218, 54.664472278155451 ], [ -1.975974603972949, 54.664708500962433 ], [ -1.975874979398192, 54.664960365251162 ], [ -1.976957334090543, 54.660479778373812 ], [ -1.976714065715048, 54.658819391478431 ], [ -1.976979456141824, 54.660630758612292 ], [ -1.977010273127382, 54.660763020487458 ], [ -1.977138615600927, 54.661019026611314 ], [ -1.977351359910505, 54.661255382916927 ], [ -1.977486903554895, 54.661363263036826 ], [ -1.977809703765142, 54.661553149729627 ], [ -1.978190657880136, 54.661702493521396 ], [ -1.978398359399564, 54.661760067550446 ], [ -1.978614864443276, 54.661805452445783 ], [ -1.97906572962513, 54.661857998963015 ], [ -2.009630321859495, 54.661859509092217 ], [ -2.010078436068663, 54.661807669621204 ], [ -2.010293739785913, 54.6617628724646 ], [ -2.010696441740765, 54.661637686939699 ], [ -2.011049135024731, 54.661469264144991 ], [ -2.011338199551049, 54.661264108454894 ], [ -2.011455274291404, 54.661150184303033 ], [ -2.011785132021733, 54.660701702305801 ], [ -2.012705633201889, 54.664933210617491 ], [ -2.012713280535777, 54.664982109359848 ], [ -2.012636889968078, 54.664736568038528 ], [ -2.012562899514644, 54.664609010960611 ], [ -2.012467337147079, 54.664486365931474 ], [ -2.012215512476807, 54.664260640099947 ] ] ], [ [ [ -2.012715553369494, 54.665216027306258 ], [ -2.01270808990843, 54.665251959053769 ], [ -2.012721018167589, 54.665152404226404 ], [ -2.012715553369494, 54.665216027306258 ] ] ], [ [ [ -2.012665322892856, 54.665402536489076 ], [ -2.012701335551005, 54.665284476869736 ], [ -2.012696076373303, 54.665309796336338 ], [ -2.012665322892856, 54.665402536489076 ] ] ], [ [ [ -2.010725885427792, 54.673095378160816 ], [ -2.01037014357401, 54.672920931731113 ], [ -2.009961541495124, 54.67279108277738 ], [ -2.009516479235731, 54.672711042910755 ], [ -2.009052819805778, 54.672684024583042 ], [ -1.978418911611805, 54.672688863823872 ], [ -1.978194277340403, 54.672708030947852 ], [ -1.977759992322953, 54.672783867939792 ], [ -1.977359358244548, 54.672907108537153 ], [ -1.977007609108575, 54.673073066660187 ], [ -1.976718120568494, 54.673275431879333 ], [ -1.976501901342203, 54.673506509310918 ], [ -1.976367174535623, 54.673757512159483 ], [ -1.976319064803583, 54.674018895792678 ], [ -1.976328195004179, 54.674150379424255 ], [ -1.976406687161432, 54.674394900579642 ], [ -1.974894023105874, 54.669819586668332 ], [ -1.975015294861845, 54.670071011335395 ], [ -1.975226315398217, 54.670311071045539 ], [ -1.975361788127216, 54.670420739939125 ], [ -1.975685890862388, 54.670613876600846 ], [ -1.975871276047816, 54.670695410602264 ], [ -1.976279452184667, 54.670824336314823 ], [ -1.976723715012584, 54.670903639657425 ], [ -1.976953869786147, 54.670923611408796 ], [ -2.00886954040122, 54.670891575206447 ], [ -2.009306991551419, 54.670841772134231 ], [ -2.009517531042127, 54.670798889317133 ], [ -2.009912563463434, 54.670679131628418 ], [ -2.010260912408782, 54.670517889805723 ], [ -2.010413500545738, 54.670423509828588 ], [ -2.010668493284407, 54.670211568485357 ], [ -2.010768550485972, 54.670095958424476 ], [ -2.010909189852284, 54.66985077166332 ], [ -2.012150557412507, 54.666706527783546 ], [ -2.010981803464578, 54.669666864423633 ], [ -2.011356310845673, 54.673747552473614 ], [ -2.01178123220653, 54.674388428849568 ], [ -2.011129873238241, 54.673424930342321 ], [ -2.010879372385205, 54.673197200099608 ], [ -2.010725885427792, 54.673095378160816 ] ] ], [ [ [ -1.976486953924994, 54.674533403792068 ], [ -1.976571110986889, 54.674639506791351 ], [ -1.976548158977024, 54.674613961691186 ], [ -1.976486953924994, 54.674533403792068 ] ] ], [ [ [ -1.976695989854625, 54.674766229372246 ], [ -1.976594221475523, 54.674665228238148 ], [ -1.976843135061765, 54.674897141181738 ], [ -1.976695989854625, 54.674766229372246 ] ] ], [ [ [ -1.981944229760665, 54.679428705064765 ], [ -1.981849985028788, 54.679351011438484 ], [ -1.981970104631242, 54.679447126499291 ], [ -1.981944229760665, 54.679428705064765 ] ] ], [ [ [ -1.982006334480163, 54.67947292005136 ], [ -1.982115025597778, 54.679543943089691 ], [ -1.982047728604848, 54.679502390214978 ], [ -1.982006334480163, 54.67947292005136 ] ] ], [ [ [ -1.982295611435044, 54.679643326743509 ], [ -1.982159927644891, 54.679571668021659 ], [ -1.982146466867041, 54.679563356621244 ], [ -1.982295611435044, 54.679643326743509 ] ] ], [ [ [ -1.982408156526696, 54.679695648594397 ], [ -1.98233145408923, 54.679659989904081 ], [ -1.982462062336456, 54.679717278198666 ], [ -1.982408156526696, 54.679695648594397 ] ] ], [ [ [ -1.982509259219397, 54.679736215820149 ], [ -1.982683897330947, 54.67979815430369 ], [ -1.982542953294685, 54.679749735454521 ], [ -1.982509259219397, 54.679736215820149 ] ] ], [ [ [ -1.982684086393802, 54.679798214149201 ], [ -1.982868407853197, 54.67984988023187 ], [ -1.982830566728047, 54.679840760195617 ], [ -1.982684086393802, 54.679798214149201 ] ] ], [ [ [ -1.982981954617836, 54.679877245882032 ], [ -1.982921413695042, 54.679862655068348 ], [ -1.983075186745304, 54.679895368557943 ], [ -1.982981954617836, 54.679877245882032 ] ] ], [ [ [ -1.983315479667716, 54.679933329080157 ], [ -1.983296136181283, 54.679931258511445 ], [ -1.983118753519836, 54.679903837137871 ], [ -1.983315479667716, 54.679933329080157 ] ] ], [ [ [ -1.983360661011736, 54.679938165376356 ], [ -1.983522532785194, 54.67995277060507 ], [ -1.983457369057074, 54.679948517127244 ], [ -1.983360661011736, 54.679938165376356 ] ] ], [ [ [ -1.983620299491261, 54.679959152132611 ], [ -1.983579566275943, 54.679956493362724 ], [ -1.983784049457876, 54.679963109036287 ], [ -1.983620299491261, 54.679959152132611 ] ] ], [ [ [ -2.012614819968845, 54.680038912222528 ], [ -2.012811499117385, 54.680011392134659 ], [ -2.012644420704889, 54.680035899282188 ], [ -2.012614819968845, 54.680038912222528 ] ] ], [ [ [ -2.012479570028713, 54.680052678674507 ], [ -2.012407447954843, 54.680056952876875 ], [ -2.012558720134401, 54.680044622378894 ], [ -2.012479570028713, 54.680052678674507 ] ] ], [ [ [ -2.0121457664133, 54.680065451149126 ], [ -2.012348464749737, 54.680060448392105 ], [ -2.012313063845195, 54.680062546337936 ], [ -2.0121457664133, 54.680065451149126 ] ] ], [ [ [ -1.9654787129417, 54.618818060097958 ], [ -1.965500676907797, 54.618815256356761 ], [ -1.965681733786009, 54.61880062761113 ], [ -1.9654787129417, 54.618818060097958 ] ] ], [ [ [ -1.965336938374374, 54.618836157780386 ], [ -1.965429447696122, 54.618824348882427 ], [ -1.965273012500977, 54.618847175963282 ], [ -1.965336938374374, 54.618836157780386 ] ] ], [ [ [ -1.965215859625869, 54.618857026727092 ], [ -1.965030172776939, 54.618895847518544 ], [ -1.965176223951639, 54.618863858239934 ], [ -1.965215859625869, 54.618857026727092 ] ] ], [ [ [ -1.964835054941849, 54.618949362191351 ], [ -1.964867195853779, 54.618939044462287 ], [ -1.965021235203409, 54.618897805088942 ], [ -1.964835054941849, 54.618949362191351 ] ] ], [ [ [ -1.964720491865016, 54.618986138596064 ], [ -1.964783968995382, 54.618965761540693 ], [ -1.964647455980879, 54.61901375384695 ], [ -1.964720491865016, 54.618986138596064 ] ] ], [ [ [ -1.964438225068072, 54.619102341757198 ], [ -1.964580022976908, 54.619039250547019 ], [ -1.964602480891759, 54.619030759123461 ], [ -1.964438225068072, 54.619102341757198 ] ] ], [ [ [ -1.964411568979503, 54.619115959559259 ], [ -1.964284126351595, 54.619183974066132 ], [ -1.96432068103774, 54.619162391390063 ], [ -1.964411568979503, 54.619115959559259 ] ] ], [ [ [ -1.964203158931679, 54.619231778858349 ], [ -1.964241490549503, 54.619209147121467 ], [ -1.964128427683401, 54.619282790981359 ], [ -1.964203158931679, 54.619231778858349 ] ] ], [ [ [ -1.964103060890699, 54.619300106508959 ], [ -1.963982378511642, 54.61939649518277 ], [ -1.963995470279858, 54.619384382609006 ], [ -1.964103060890699, 54.619300106508959 ] ] ], [ [ [ -1.963906385677832, 54.619466803987308 ], [ -1.963954658921661, 54.61942214146675 ], [ -1.963873766224899, 54.619502463842927 ], [ -1.963906385677832, 54.619466803987308 ] ] ], [ [ [ -1.963846073716687, 54.619532737465804 ], [ -1.963760079377542, 54.619641707994809 ], [ -1.963827777075789, 54.619552739439669 ], [ -1.963846073716687, 54.619532737465804 ] ] ], [ [ [ -1.960644388523513, 54.624173976467972 ], [ -1.960590681194298, 54.624264656084826 ], [ -1.960605221433548, 54.624236113555682 ], [ -1.960644388523513, 54.624173976467972 ] ] ], [ [ [ -1.96057540369502, 54.624294645812334 ], [ -1.960529933477478, 54.624405567267843 ], [ -1.960564022193752, 54.624316987666603 ], [ -1.96057540369502, 54.624294645812334 ] ] ], [ [ [ -1.960526313337944, 54.624418505408343 ], [ -1.960501328745724, 54.624524427322868 ], [ -1.960508420259042, 54.624482453972171 ], [ -1.960526313337944, 54.624418505408343 ] ] ], [ [ [ -1.960460966612474, 54.633772058716268 ], [ -1.960456918969917, 54.633750156063819 ], [ -1.960451063053485, 54.633653755221729 ], [ -1.960460966612474, 54.633772058716268 ] ] ], [ [ [ -1.960474643052206, 54.633846064657206 ], [ -1.96046721687336, 54.633805880157134 ], [ -1.960490215986489, 54.633896174043016 ], [ -1.960474643052206, 54.633846064657206 ] ] ], [ [ [ -1.960548822858337, 54.634040636610102 ], [ -1.960504144627896, 54.63394099244379 ], [ -1.960499599540257, 54.633926367657374 ], [ -1.960548822858337, 54.634040636610102 ] ] ], [ [ [ -1.960560210531057, 54.634060470427734 ], [ -1.960617445865963, 54.634153429182177 ], [ -1.960597816813297, 54.634125968840742 ], [ -1.960560210531057, 54.634060470427734 ] ] ], [ [ [ -1.960661507936084, 54.634215070292939 ], [ -1.96064064226481, 54.634185880061182 ], [ -1.960711648281695, 54.634273096637962 ], [ -1.960661507936084, 54.634215070292939 ] ] ], [ [ [ -1.960834032545524, 54.634395112219217 ], [ -1.960820971624178, 54.634384220830782 ], [ -1.960729805830956, 54.634294109933727 ], [ -1.960834032545524, 54.634395112219217 ] ] ], [ [ [ -1.960863047450528, 54.634419307469599 ], [ -1.960957383710477, 54.634493180426375 ], [ -1.960915927780579, 54.634463403776572 ], [ -1.960863047450528, 54.634419307469599 ] ] ], [ [ [ -1.961020402326509, 54.634538444847486 ], [ -1.960994688722763, 54.634519975537231 ], [ -1.961123984289019, 54.634602821767878 ], [ -1.961020402326509, 54.634538444847486 ] ] ], [ [ [ -1.968014034552346, 54.639104517614129 ], [ -1.967392760096745, 54.642512728742865 ], [ -1.96738135660192, 54.642630511214989 ], [ -1.967392759217778, 54.642512728689361 ], [ -1.968014034552346, 54.639104517614129 ] ] ], [ [ [ -1.967389600813286, 54.642777429167985 ], [ -1.96738063033296, 54.64268880731592 ], [ -1.967380992355231, 54.642659748561442 ], [ -1.967389600813286, 54.642777429167985 ] ] ], [ [ [ -1.967408207526229, 54.642864299058601 ], [ -1.967390091882772, 54.642779721848157 ], [ -1.967418141133922, 54.642894417827605 ], [ -1.967408207526229, 54.642864299058601 ] ] ], [ [ [ -1.967475692867392, 54.643037383180385 ], [ -1.967436765154715, 54.64295088586826 ], [ -1.967427607674918, 54.642923120404753 ], [ -1.967475692867392, 54.643037383180385 ] ] ], [ [ [ -1.975332344851217, 54.667377548662451 ], [ -1.974876427469114, 54.669408224673433 ], [ -1.974859988460031, 54.669528036705394 ], [ -1.974876427158959, 54.669408224489707 ], [ -1.975332344851217, 54.667377548662451 ] ] ], [ [ [ -1.974858412918533, 54.669554789701287 ], [ -1.974862632737402, 54.669672681624895 ], [ -1.974856987128581, 54.669578999856768 ], [ -1.974858412918533, 54.669554789701287 ] ] ], [ [ [ -1.97486541175716, 54.669689964590567 ], [ -1.974887709708467, 54.669796389180149 ], [ -1.974875037283688, 54.669749826463296 ], [ -1.97486541175716, 54.669689964590567 ] ] ], [ [ [ -1.976420772382143, 54.674422709229475 ], [ -1.976485570827653, 54.674531210450645 ], [ -1.97643555380654, 54.674451892361319 ], [ -1.976420772382143, 54.674422709229475 ] ] ] ] } },
{ "type": "Feature", "properties": { "Moor": "Eggleston", "Count": "Blackton", "Count_Type": "Core", "GWCT_Region": "N.DALES", "area_ha": 289.68346801633379, "uid": 10 }, "geometry": { "type": "Polygon", "coordinates": [ [ [ -1.960466761812251, 54.629039393710457 ], [ -1.960500446578041, 54.628908354913392 ], [ -1.960633304150978, 54.62865517249945 ], [ -1.96084886154502, 54.628421929727722 ], [ -1.961138808922428, 54.628217616778549 ], [ -1.961491969623523, 54.628050108628209 ], [ -1.961894731033082, 54.627925861573438 ], [ -1.962331569241022, 54.627849664440539 ], [ -1.962785647281729, 54.627824454057354 ], [ -2.012006201506849, 54.627904813636775 ], [ -2.012469114797592, 54.627960969944041 ], [ -2.012902841227689, 54.628070346405636 ], [ -2.013289411753256, 54.628228411689363 ], [ -2.013612810455121, 54.628428617281983 ], [ -2.019523310515518, 54.632938456931008 ], [ -2.019734209734977, 54.633182456576996 ], [ -2.019843429237381, 54.633412165835395 ], [ -2.019878292518714, 54.633562709157339 ], [ -2.019863225518947, 54.633835503429296 ], [ -2.019770041153542, 54.634076342996245 ], [ -2.019590802825053, 54.634314659418131 ], [ -2.019336024480246, 54.634528580002666 ], [ -2.019015184566533, 54.634710145400653 ], [ -2.018640219966335, 54.634852600006781 ], [ -2.018225081879736, 54.634950643370786 ], [ -2.018007231793747, 54.6349818021218 ], [ -2.017561106561481, 54.635006943871801 ], [ -1.962545775969454, 54.634995934900267 ], [ -1.962320216661197, 54.634976454416467 ], [ -1.961884362457073, 54.634899608815466 ], [ -1.961678265434175, 54.634842983832698 ], [ -1.96129963724713, 54.634696051138029 ], [ -1.960994688722763, 54.634519975537231 ], [ -1.960834032545524, 54.634395112219217 ], [ -1.960617445865963, 54.634153429182177 ], [ -1.960499599540257, 54.633926367657374 ], [ -1.960451063053485, 54.633653755221729 ], [ -1.960466761812251, 54.629039393710457 ] ] ] } },
{ "type": "Feature", "properties": { "Moor": "Eggleston", "Count": "Cloudlam", "Count_Type": "Core", "GWCT_Region": "N.DALES", "area_ha": 239.00255252274462, "uid": 11 }, "geometry": { "type": "Polygon", "coordinates": [ [ [ -2.016713051855008, 54.645797747561254 ], [ -2.017170846127035, 54.645851485163526 ], [ -2.01760087409246, 54.645957215411165 ], [ -2.017985772931271, 54.646110669403164 ], [ -2.018310001472845, 54.646305651315281 ], [ -2.018560467627564, 54.646534288502423 ], [ -2.018727057042845, 54.646787349303501 ], [ -2.018802404847689, 54.647051364028222 ], [ -2.018805950111827, 54.647190214500604 ], [ -2.018515214850853, 54.651638328874782 ], [ -2.01845375340453, 54.651898314926768 ], [ -2.018306888839848, 54.652146136314421 ], [ -2.01809482104695, 54.652361801584654 ], [ -2.017958475089109, 54.652463679330943 ], [ -2.017638681845917, 54.652642513502322 ], [ -2.017266053585965, 54.652782806040733 ], [ -2.017064117230328, 54.652836837376398 ], [ -2.016854200285576, 54.652879432689062 ], [ -2.016418165013308, 54.65292886407898 ], [ -1.975555731920533, 54.65296781895718 ], [ -1.975093441841053, 54.652941197100709 ], [ -1.974649512055946, 54.652861808828462 ], [ -1.97444002071669, 54.652803238626184 ], [ -1.974056447758028, 54.652651271315861 ], [ -1.973732646656097, 54.652458115777193 ], [ -1.973481547259334, 54.652231485542828 ], [ -1.970403278155939, 54.64765964110358 ], [ -1.970331855769554, 54.647535620929126 ], [ -1.970252652875964, 54.647278491575086 ], [ -1.970260448308042, 54.647017331271783 ], [ -1.97035494772979, 54.646761945520922 ], [ -1.970532601563777, 54.646521922834602 ], [ -1.970786738487277, 54.646306274754167 ], [ -1.971107816082604, 54.646123097554423 ], [ -1.971483779205568, 54.645979268327054 ], [ -1.971900512603525, 54.645880186843982 ], [ -1.972342370789662, 54.645829572882803 ], [ -2.016713051855008, 54.645797747561254 ] ] ] } },
{ "type": "Feature", "properties": { "Moor": "Eggleston", "Count": "Ever Rigg", "Count_Type": "Core", "GWCT_Region": "N.DALES", "area_ha": 261.38278945287789, "uid": 12 }, "geometry": { "type": "Polygon", "coordinates": [ [ [ -1.96825077283574, 54.637866838127387 ], [ -1.96830736181705, 54.637739309437684 ], [ -1.96848334238336, 54.637496866354233 ], [ -1.96873714463751, 54.637278864058253 ], [ -1.969059102768026, 54.637093603964651 ], [ -1.969436956124754, 54.636948140579626 ], [ -1.969856316121275, 54.636848012927182 ], [ -1.97030121407581, 54.6367970336821 ], [ -1.970527966260406, 54.63679065696131 ], [ -2.016420418495745, 54.636793129550796 ], [ -2.016863456822915, 54.636817791281324 ], [ -2.017079889217501, 54.636848451212799 ], [ -2.017492653280483, 54.636945022924237 ], [ -2.017866110789603, 54.637085467235408 ], [ -2.018033748516694, 54.637170589959396 ], [ -2.018323152255323, 54.637366732123631 ], [ -2.01854278699787, 54.637591279567587 ], [ -2.018684595658901, 54.637835996217291 ], [ -2.018724571848571, 54.637963133028755 ], [ -2.01874083324072, 54.638221131771161 ], [ -2.018248901324996, 54.642906185925924 ], [ -2.018128145987353, 54.643168367636484 ], [ -2.017919291231195, 54.643411208619966 ], [ -2.017630800438883, 54.643624866559108 ], [ -2.017460231175491, 54.6437179895497 ], [ -2.017075090451927, 54.643872103209716 ], [ -2.016864431351438, 54.643931528292974 ], [ -2.01641761385093, 54.644012102684577 ], [ -2.015952022861322, 54.644039139122718 ], [ -1.969700154539107, 54.644002445165533 ], [ -1.969245325533566, 54.643975926642298 ], [ -1.968808243311059, 54.643898292386737 ], [ -1.968405815372646, 54.643772545522587 ], [ -1.96805360833272, 54.643603550276453 ], [ -1.967900685908456, 54.643504818526338 ], [ -1.967765245666642, 54.643397843768852 ], [ -1.967551880713659, 54.643163383087668 ], [ -1.967427607674918, 54.642923120404753 ], [ -1.967389600813286, 54.642777429167985 ], [ -1.967392760096745, 54.642512728742865 ], [ -1.96825077283574, 54.637866838127387 ] ] ] } },
{ "type": "Feature", "properties": { "Moor": "Eggleston", "Count": "Neamour", "Count_Type": "Core", "GWCT_Region": "N.DALES", "area_ha": 218.52553907488027, "uid": 13 }, "geometry": { "type": "Polygon", "coordinates": [ [ [ -1.963846073716687, 54.619532737465804 ], [ -1.963982378511642, 54.61939649518277 ], [ -1.964241490549503, 54.619209147121467 ], [ -1.964438225068072, 54.619102341757198 ], [ -1.964647455980879, 54.61901375384695 ], [ -1.965021235203409, 54.618897805088942 ], [ -1.965215859625869, 54.618857026727092 ], [ -1.9654787129417, 54.618818060097958 ], [ -1.965922795843943, 54.618793377239889 ], [ -1.998688649374365, 54.618832119844917 ], [ -1.999148399884215, 54.618859475112416 ], [ -1.999589311435341, 54.618938991509999 ], [ -1.999951022249858, 54.619051049810764 ], [ -2.000178220942067, 54.619148576191201 ], [ -2.000482305488517, 54.619326522341517 ], [ -2.006802264708889, 54.623808377653688 ], [ -2.006937734739269, 54.623914668746238 ], [ -2.007151768886887, 54.624147724838892 ], [ -2.00728339088864, 54.624400521494785 ], [ -2.007327547836725, 54.624663356960767 ], [ -2.007282543371791, 54.624926144029651 ], [ -2.007227012084894, 54.625054356968164 ], [ -2.00705255577027, 54.625298267723764 ], [ -2.006799488275444, 54.625517762427783 ], [ -2.006477521369872, 54.625704416690127 ], [ -2.006099011748764, 54.625851066459255 ], [ -2.005678486798143, 54.62595208304429 ], [ -2.005232086952482, 54.626003589206199 ], [ -2.005004517302803, 54.626010081265882 ], [ -1.96281101751199, 54.626004474714385 ], [ -1.962360867241371, 54.625978787626771 ], [ -1.961927828113291, 54.625902976600386 ], [ -1.961528315816545, 54.625779915509803 ], [ -1.961177474753228, 54.625614269370047 ], [ -1.960888603851418, 54.6254123174499 ], [ -1.960672652419952, 54.625181715186223 ], [ -1.960537805162524, 54.624931203934281 ], [ -1.960489172074114, 54.624670279567219 ], [ -1.960501328745724, 54.624524427322868 ], [ -1.96057540369502, 54.624294645812334 ], [ -1.960655145092421, 54.624156911548006 ], [ -1.963846073716687, 54.619532737465804 ] ] ] } },
{ "type": "Feature", "properties": { "Moor": "Eggleston", "Count": "North Sharnberry", "Count_Type": "Core", "GWCT_Region": "N.DALES", "area_ha": 178.77157363690961, "uid": 14 }, "geometry": { "type": "Polygon", "coordinates": [ [ [ -1.976594221475523, 54.674665228238148 ], [ -1.976406687161432, 54.674394900579642 ], [ -1.976328195004179, 54.674150379424255 ], [ -1.976319064803583, 54.674018895792678 ], [ -1.976367174535623, 54.673757512159483 ], [ -1.976423955591298, 54.67363010298066 ], [ -1.976600268842694, 54.673387908893311 ], [ -1.976854333355871, 54.673170150061196 ], [ -1.977007609108575, 54.673073066660187 ], [ -1.977359358244548, 54.672907108537153 ], [ -1.977759992322953, 54.672783867939792 ], [ -1.978194277340403, 54.672708030947852 ], [ -1.978418911611805, 54.672688863823872 ], [ -2.009052819805778, 54.672684024583042 ], [ -2.009516479235731, 54.672711042910755 ], [ -2.009961541495124, 54.67279108277738 ], [ -2.010171467414495, 54.672850062064853 ], [ -2.010555571367992, 54.673002978876895 ], [ -2.010879372385205, 54.673197200099608 ], [ -2.011129873238241, 54.673424930342321 ], [ -2.014331254805498, 54.678233976057619 ], [ -2.014409964213435, 54.678378948158709 ], [ -2.014479096690327, 54.678614329971182 ], [ -2.014483032786843, 54.678767277573321 ], [ -2.014432993805789, 54.679002946455597 ], [ -2.014305435626705, 54.679236089371884 ], [ -2.014175471657113, 54.679388853819148 ], [ -2.013928509993524, 54.679592633433593 ], [ -2.013636912017683, 54.679757832922327 ], [ -2.013422766400908, 54.679849278708872 ], [ -2.013003945737863, 54.679972897336981 ], [ -2.012614819968845, 54.680038912222528 ], [ -2.012348464749737, 54.680060448392105 ], [ -1.983784118065851, 54.679963110694096 ], [ -1.983315479667716, 54.679933329080157 ], [ -1.982868407853197, 54.67984988023187 ], [ -1.982509259219397, 54.679736215820149 ], [ -1.982295611435044, 54.679643326743509 ], [ -1.981970104631242, 54.679447126499291 ], [ -1.976594221475523, 54.674665228238148 ] ] ] } },
{ "type": "Feature", "properties": { "Moor": "Eggleston", "Count": "Robin Weathers", "Count_Type": "Core", "GWCT_Region": "N.DALES", "area_ha": 184.59492354751069, "uid": 15 }, "geometry": { "type": "Polygon", "coordinates": [ [ [ -1.976329571652106, 54.65611931794178 ], [ -1.976379249491116, 54.655858719646943 ], [ -1.976514993689048, 54.65560862600266 ], [ -1.976731667673078, 54.655378497778919 ], [ -1.977021073761414, 54.655177040324688 ], [ -1.977372263416935, 54.655011874304989 ], [ -1.977566953526262, 54.65494491349591 ], [ -1.977985314026456, 54.654845403928505 ], [ -1.97842898280897, 54.654794730584726 ], [ -2.012504009018192, 54.654789616201008 ], [ -2.012956930765993, 54.65481539457992 ], [ -2.013392515229437, 54.654891835541932 ], [ -2.013794073335085, 54.655016010335238 ], [ -2.01414621934514, 54.655183161304237 ], [ -2.014435460255926, 54.655386884128944 ], [ -2.014650712764439, 54.655619373149356 ], [ -2.014783728001908, 54.655871720385683 ], [ -2.014829407752119, 54.656134256807356 ], [ -2.01478600001619, 54.656396922784069 ], [ -2.014655166397753, 54.656649653530572 ], [ -2.011455274291404, 54.661150184303033 ], [ -2.011202381690225, 54.661370812632953 ], [ -2.010879942580165, 54.661558510161591 ], [ -2.010500408402812, 54.661706028183886 ], [ -2.010078436068663, 54.661807669621204 ], [ -2.009630321859495, 54.661859509092217 ], [ -2.009401848405145, 54.661866049680874 ], [ -1.97929566968885, 54.661864645441376 ], [ -1.978838050520777, 54.661838203274932 ], [ -1.978398359399564, 54.661760067550446 ], [ -1.978190657880136, 54.661702493521396 ], [ -1.977809703765142, 54.661553149729627 ], [ -1.977486903554895, 54.661363263036826 ], [ -1.977351359910505, 54.661255382916927 ], [ -1.977138615600927, 54.661019026611314 ], [ -1.977063500135551, 54.660892867444012 ], [ -1.976979456141824, 54.660630758612292 ], [ -1.976329571652106, 54.65611931794178 ] ] ] } },
{ "type": "Feature", "properties": { "Moor": "Eggleston", "Count": "South Sharnberry", "Count_Type": "Core", "GWCT_Region": "N.DALES", "area_ha": 185.23552847248098, "uid": 16 }, "geometry": { "type": "Polygon", "coordinates": [ [ [ -2.010625719352653, 54.663760305493703 ], [ -2.011080409435371, 54.663813124542528 ], [ -2.011507980673235, 54.663917190909316 ], [ -2.011891431041281, 54.66406836654204 ], [ -2.012215512476807, 54.664260640099947 ], [ -2.012467337147079, 54.664486365931474 ], [ -2.012636889968078, 54.664736568038528 ], [ -2.012717857166607, 54.665011373291819 ], [ -2.01270808990843, 54.665251959053769 ], [ -2.012665320173319, 54.665402544690096 ], [ -2.010849029596786, 54.66997532260077 ], [ -2.010668493284407, 54.670211568485357 ], [ -2.010413500545738, 54.670423509828588 ], [ -2.010260912408782, 54.670517889805723 ], [ -2.009912563463434, 54.670679131628418 ], [ -2.009517531042127, 54.670798889317133 ], [ -2.009306991551419, 54.670841772134231 ], [ -2.009090329726441, 54.670872762542118 ], [ -2.008646656423542, 54.670898036915382 ], [ -1.977186316182415, 54.670930152426479 ], [ -1.976953869786147, 54.670923611408796 ], [ -1.976498156332685, 54.670870437143854 ], [ -1.976279452184667, 54.670824336314823 ], [ -1.975871276047816, 54.670695410602264 ], [ -1.975685890862388, 54.670613876600846 ], [ -1.975361788127216, 54.670420739939125 ], [ -1.975110430946673, 54.670194104478767 ], [ -1.97494185946841, 54.669943024041892 ], [ -1.974862632737402, 54.669672681624895 ], [ -1.974876427469114, 54.669408224673433 ], [ -1.975914355234454, 54.66483304885066 ], [ -1.975974603972949, 54.664708500962433 ], [ -1.976155308284218, 54.664472278155451 ], [ -1.976410449190418, 54.664260382464448 ], [ -1.976563101320684, 54.664166033477912 ], [ -1.976911553703591, 54.664004868765488 ], [ -1.977104145493586, 54.663939536932041 ], [ -1.977517210159012, 54.663842376399217 ], [ -1.977954666568827, 54.663792688503193 ], [ -1.978177537588879, 54.66378628775572 ], [ -2.010625719352653, 54.663760305493703 ] ] ] } },
{ "type": "Feature", "properties": { "Moor": "Geltsdale", "Count": "Middle", "Count_Type": "Core", "GWCT_Region": "N.DALES", "area_ha": 262.78363289318958, "uid": 17 }, "geometry": { "type": "Polygon", "coordinates": [ [ [ -2.593502361650954, 54.860924368952183 ], [ -2.640195118104995, 54.860664591020246 ], [ -2.640688697823589, 54.860692102192417 ], [ -2.641007329979356, 54.860743664126097 ], [ -2.641310140434219, 54.860820673798344 ], [ -2.641591056055349, 54.860921586736261 ], [ -2.641959200067775, 54.861113226245642 ], [ -2.642161964947338, 54.861264096227657 ], [ -2.642325749877515, 54.861429976222503 ], [ -2.642447269431579, 54.861607539278111 ], [ -2.642524085769303, 54.861793224078099 ], [ -2.642554657571794, 54.861983306361857 ], [ -2.642724931503565, 54.866520955445644 ], [ -2.642681444529921, 54.866810552482605 ], [ -2.642531318902209, 54.86708803812013 ], [ -2.642375242430942, 54.867259885606394 ], [ -2.642178009736867, 54.867417030892213 ], [ -2.641943706032889, 54.867556218719749 ], [ -2.641533544476654, 54.867725139591442 ], [ -2.641229225701529, 54.867807777821902 ], [ -2.640907489550246, 54.86786436412234 ], [ -2.64057500096117, 54.867893726265507 ], [ -2.593636236859711, 54.868101196437664 ], [ -2.593380513296828, 54.868098812920678 ], [ -2.59304881669826, 54.868072734991358 ], [ -2.592726996259902, 54.868019566408329 ], [ -2.592421668086593, 54.867940400237408 ], [ -2.592008204977047, 54.867776603846856 ], [ -2.591770511943177, 54.86764064837466 ], [ -2.591568974045691, 54.867486485181978 ], [ -2.591407734028167, 54.867317283523796 ], [ -2.591290106069749, 54.867136521771897 ], [ -2.591218507686674, 54.866947915898024 ], [ -2.591194410078265, 54.866755343075518 ], [ -2.591193074057227, 54.862177776143938 ], [ -2.591280413116545, 54.861895602224365 ], [ -2.591469208996977, 54.861630460509495 ], [ -2.591647399543259, 54.86146913068935 ], [ -2.591984218574475, 54.861258391110937 ], [ -2.592390666217841, 54.861093496736792 ], [ -2.59269134323607, 54.861012814807246 ], [ -2.593008790745302, 54.860957496881923 ], [ -2.593502361650954, 54.860924368952183 ] ] ] } },
{ "type": "Feature", "properties": { "Moor": "Grinton", "Count": "Long Gill", "Count_Type": "Core", "GWCT_Region": "N.DALES", "area_ha": 91.142743329107944, "uid": 18 }, "geometry": { "type": "Polygon", "coordinates": [ [ [ -1.941826493660021, 54.372457659212451 ], [ -1.944433872823194, 54.36425532870409 ], [ -1.960008880416604, 54.364291182106186 ], [ -1.957099210227875, 54.372434295935328 ], [ -1.941826493660021, 54.372457659212451 ] ] ] } },
{ "type": "Feature", "properties": { "Moor": "Moor House", "Count": "Behind House", "Count_Type": "Core", "GWCT_Region": "N.DALES", "area_ha": 99.233115942713454, "uid": 19 }, "geometry": { "type": "Polygon", "coordinates": [ [ [ -2.358292942725901, 54.682522516451549 ], [ -2.373743029831777, 54.682475820335625 ], [ -2.373825344812858, 54.691427725327109 ], [ -2.358371857467091, 54.691474436819938 ], [ -2.358292942725901, 54.682522516451549 ] ] ] } },
{ "type": "Feature", "properties": { "Moor": "Moor House", "Count": "Trout Beck", "Count_Type": "Core", "GWCT_Region": "N.DALES", "area_ha": 211.17004816558804, "uid": 20 }, "geometry": { "type": "Polygon", "coordinates": [ [ [ -2.41868803968213, 54.675278501375388 ], [ -2.422165255442069, 54.678186567078839 ], [ -2.42240735276746, 54.678445497787635 ], [ -2.422512149116045, 54.678632427774296 ], [ -2.422568921127073, 54.678826201406736 ], [ -2.422576461162874, 54.679022699141385 ], [ -2.422534608213983, 54.679217743462317 ], [ -2.422444251382157, 54.679407187693876 ], [ -2.422307311036384, 54.679587004162855 ], [ -2.422126698037616, 54.679753369835339 ], [ -2.421906251894689, 54.679902747606704 ], [ -2.421650659162846, 54.680031961515745 ], [ -2.387378177533253, 54.694940051755417 ], [ -2.387081509574266, 54.695033626883493 ], [ -2.386600587171412, 54.695125026543259 ], [ -2.386096922413621, 54.695154036271134 ], [ -2.385760267335864, 54.695137912920337 ], [ -2.385431189331646, 54.695093728095941 ], [ -2.38511662262628, 54.69502241284934 ], [ -2.384823195581186, 54.694925469911809 ], [ -2.384436062605315, 54.694736609355395 ], [ -2.380409697180664, 54.691910907679997 ], [ -2.380139415249793, 54.691674219151302 ], [ -2.380009557462087, 54.691500412753356 ], [ -2.379896675403795, 54.691224262401668 ], [ -2.379878193597712, 54.691035178626962 ], [ -2.379905687757617, 54.690846462890597 ], [ -2.380031696530044, 54.690572224724356 ], [ -2.380169790204262, 54.690400562847287 ], [ -2.380348090100851, 54.690241821618145 ], [ -2.380563069128493, 54.690099140824806 ], [ -2.380840599685993, 54.689961957434939 ], [ -2.415508094339413, 54.674916080452334 ], [ -2.415921371217007, 54.674792497736348 ], [ -2.41636880834796, 54.674719027546644 ], [ -2.41684461065195, 54.674698794938195 ], [ -2.41717734119793, 54.674718421968748 ], [ -2.417658775733521, 54.674799048527518 ], [ -2.418099239895148, 54.674937561968434 ], [ -2.418478289955502, 54.675127533475326 ], [ -2.41868803968213, 54.675278501375388 ] ] ] } },
{ "type": "Feature", "properties": { "Moor": "Ramsgill", "Count": "Raygill", "Count_Type": "Core", "GWCT_Region": "S.DALES/PEAK", "area_ha": 91.68995314536518, "uid": 21 }, "geometry": { "type": "Polygon", "coordinates": [ [ [ -1.863779645457229, 54.120076715136861 ], [ -1.87908079943312, 54.12009302452956 ], [ -1.879056861256948, 54.128332561080313 ], [ -1.863752671573673, 54.128316246776308 ], [ -1.863779645457229, 54.120076715136861 ] ] ] } },
{ "type": "Feature", "properties": { "Moor": "Rosedale", "Count": "Pits", "Count_Type": "Core", "GWCT_Region": "NYM", "area_ha": 138.99841342740018, "uid": 22 }, "geometry": { "type": "Polygon", "coordinates": [ [ [ -0.90479101968753, 54.382062478222885 ], [ -0.920718225962814, 54.394869061043664 ], [ -0.920874162393613, 54.395042733741469 ], [ -0.92102324822669, 54.39532333184242 ], [ -0.921064618980507, 54.395616112662388 ], [ -0.920996307411538, 54.395907170202371 ], [ -0.920821555876681, 54.396182680025092 ], [ -0.920649821776606, 54.396351203776483 ], [ -0.920318436510612, 54.396572367943854 ], [ -0.919912805102353, 54.396746388253014 ], [ -0.919452194374032, 54.396864998695051 ], [ -0.917130468585434, 54.397293584524327 ], [ -0.916842011545166, 54.397335136722397 ], [ -0.916546799882425, 54.397354742102401 ], [ -0.910846385210803, 54.397302941571098 ], [ -0.910526123617746, 54.397273569627068 ], [ -0.910216062871932, 54.397218326973345 ], [ -0.9099223095035, 54.397138301604976 ], [ -0.90965064878427, 54.397035069599141 ], [ -0.909406430767536, 54.396910664066688 ], [ -0.909194464910264, 54.396767535100999 ], [ -0.896278882354156, 54.386687854505418 ], [ -0.896124733219002, 54.386524584287031 ], [ -0.896010662761731, 54.386350460852661 ], [ -0.895938853152227, 54.386168815981826 ], [ -0.895910677853475, 54.385983125328728 ], [ -0.895926675382739, 54.38579694191381 ], [ -0.895986539052332, 54.385613828138332 ], [ -0.89608912288285, 54.385437287623141 ], [ -0.896232463572289, 54.385270698175731 ], [ -0.8978940293114, 54.383858324033547 ], [ -0.898082483351475, 54.383719319552839 ], [ -0.901314886405221, 54.381886507780244 ], [ -0.901554839768999, 54.381768117677822 ], [ -0.901820101650154, 54.381669834592309 ], [ -0.902254601855949, 54.381563979698392 ], [ -0.902716850716076, 54.381511763108769 ], [ -0.903191148320005, 54.381515594210832 ], [ -0.903655777356903, 54.38157623710314 ], [ -0.904089229339698, 54.381691206499539 ], [ -0.904473081775776, 54.381855616087677 ], [ -0.90479101968753, 54.382062478222885 ] ] ] } },
{ "type": "Feature", "properties": { "Moor": "Snilesworth", "Count": "Lodge", "Count_Type": "Core", "GWCT_Region": "NYM", "area_ha": 73.154839949656946, "uid": 23 }, "geometry": { "type": "Polygon", "coordinates": [ [ [ -1.225191815742309, 54.352975018801914 ], [ -1.247579214352741, 54.353116606140119 ], [ -1.24749669481273, 54.357634124510959 ], [ -1.225106840664725, 54.357492513738393 ], [ -1.225191815742309, 54.352975018801914 ] ] ] } },
{ "type": "Feature", "properties": { "Moor": "Stags Fell", "Count": "Beacon", "Count_Type": "Core", "GWCT_Region": "N.DALES", "area_ha": 136.8131667608335, "uid": 24 }, "geometry": { "type": "Polygon", "coordinates": [ [ [ -2.139927610119601, 54.34307062937183 ], [ -2.155343070549978, 54.343047152898976 ], [ -2.155833234146294, 54.34307712773726 ], [ -2.156149095267238, 54.343130719259186 ], [ -2.156590498272966, 54.343258801473539 ], [ -2.156854455132187, 54.343373456186484 ], [ -2.157191537245371, 54.343583524125606 ], [ -2.157444572376765, 54.343830626080518 ], [ -2.157602014581514, 54.344103488385024 ], [ -2.157656678717564, 54.344389661864476 ], [ -2.157666375520947, 54.345759526144128 ], [ -2.157642311954479, 54.347036543203103 ], [ -2.157668127956224, 54.348544728399268 ], [ -2.157583823122223, 54.35002718240888 ], [ -2.157599742803192, 54.351365635407319 ], [ -2.157555631655845, 54.351557014316235 ], [ -2.157465162232066, 54.35174274806603 ], [ -2.157246847112268, 54.352002477843953 ], [ -2.157050584038358, 54.352157869197079 ], [ -2.156690159425322, 54.352356355956282 ], [ -2.156265521469154, 54.352505340710422 ], [ -2.15579623433754, 54.352597959145307 ], [ -2.15530391990731, 54.352629943927582 ], [ -2.139886910499575, 54.352658102719012 ], [ -2.139555308303087, 54.352644704187739 ], [ -2.139072648833336, 54.35257293625898 ], [ -2.138627591895078, 54.352442348588049 ], [ -2.138362116308834, 54.352325511217998 ], [ -2.13812812958998, 54.352187608167903 ], [ -2.137846605324007, 54.3519476187466 ], [ -2.137659786277493, 54.351677935094465 ], [ -2.137576371761285, 54.351391117909841 ], [ -2.137599796018412, 54.349956785619511 ], [ -2.137675888536462, 54.348554896272567 ], [ -2.137658486925055, 54.347077019325937 ], [ -2.137577127342127, 54.345724559607703 ], [ -2.137635809948621, 54.344294594959585 ], [ -2.137688244833321, 54.344107729208908 ], [ -2.137849392589458, 54.343840056760293 ], [ -2.138008729619658, 54.343675160107402 ], [ -2.138317745976424, 54.343456262165382 ], [ -2.138698335838794, 54.343280003130609 ], [ -2.139133638109717, 54.343154191358835 ], [ -2.139444786802747, 54.343101195565907 ], [ -2.139927610119601, 54.34307062937183 ] ] ] } },
{ "type": "Feature", "properties": { "Moor": "Swinton", "Count": "Potts", "Count_Type": "Core", "GWCT_Region": "S.DALES/PEAK", "area_ha": 96.982303495341938, "uid": 25 }, "geometry": { "type": "Polygon", "coordinates": [ [ [ -1.802274245356614, 54.189324199050169 ], [ -1.81773665766207, 54.186138363833464 ], [ -1.817699050618722, 54.194698802098429 ], [ -1.802354085303941, 54.198098834547366 ], [ -1.802274245356614, 54.189324199050169 ] ] ] } },
{ "type": "Feature", "properties": { "Moor": "Wemmergill", "Count": "Close House", "Count_Type": "Core", "GWCT_Region": "N.DALES", "area_ha": 212.46061308498793, "uid": 26 }, "geometry": { "type": "Polygon", "coordinates": [ [ [ -2.249247960467496, 54.598322351980151 ], [ -2.295596528431685, 54.598217506411721 ], [ -2.295927034671631, 54.598230419248161 ], [ -2.296251012307692, 54.598270509606678 ], [ -2.296710381315481, 54.598379670492257 ], [ -2.296989805497072, 54.598482967888557 ], [ -2.297241067749827, 54.598608302101013 ], [ -2.297459053207449, 54.598753121878794 ], [ -2.297639324233849, 54.598914479302394 ], [ -2.29777821076755, 54.599089089779341 ], [ -2.29787288505519, 54.599273398894901 ], [ -2.297928037489869, 54.599559804991962 ], [ -2.297951021618692, 54.602705124469594 ], [ -2.297928789582731, 54.602897022147864 ], [ -2.297859742028145, 54.603085129723439 ], [ -2.297671719011027, 54.603351848159882 ], [ -2.297390331519602, 54.603589267973632 ], [ -2.297157062394117, 54.603725841160227 ], [ -2.29689268619277, 54.603841751170769 ], [ -2.296602585024613, 54.603934638231301 ], [ -2.29613223208972, 54.60402680191784 ], [ -2.295804505025123, 54.604054975691149 ], [ -2.249198871152832, 54.604163407740153 ], [ -2.248868331280867, 54.604150367383831 ], [ -2.248544353139404, 54.604110150268909 ], [ -2.248233532584337, 54.60404357517605 ], [ -2.247942197520933, 54.603951997503728 ], [ -2.247676279045254, 54.603837281666017 ], [ -2.247441190674921, 54.603701763125784 ], [ -2.247241718130104, 54.603548200836606 ], [ -2.247081921909724, 54.603379721063057 ], [ -2.246923498271746, 54.603106600015806 ], [ -2.246868698878602, 54.602820170524367 ], [ -2.246854939389467, 54.599578665864485 ], [ -2.246900859674789, 54.599388203875534 ], [ -2.247055900207294, 54.599114452340459 ], [ -2.247307676286017, 54.598866110680405 ], [ -2.247644664611507, 54.598654543396634 ], [ -2.247909188013399, 54.598538792971183 ], [ -2.248352315097011, 54.598408996283766 ], [ -2.248832849330948, 54.598336891705401 ], [ -2.249247960467496, 54.598322351980151 ] ] ] } },
{ "type": "Feature", "properties": { "Moor": "Wemmergill", "Count": "South Side", "Count_Type": "Core", "GWCT_Region": "N.DALES", "area_ha": 283.66039400772473, "uid": 27 }, "geometry": { "type": "Polygon", "coordinates": [ [ [ -2.18722180412574, 54.569156917285511 ], [ -2.233809066427692, 54.569078843133489 ], [ -2.234302961989766, 54.569130247208335 ], [ -2.234616621086441, 54.569198392179601 ], [ -2.234910129990779, 54.569292063016526 ], [ -2.235299382727979, 54.569476026143967 ], [ -2.23561146221809, 54.569704312818075 ], [ -2.235769262132436, 54.569875926282847 ], [ -2.235922377657713, 54.570153558475788 ], [ -2.235969177150225, 54.570443825121643 ], [ -2.235907469405957, 54.570733149590176 ], [ -2.235807266966724, 54.570918805199739 ], [ -2.235662105668828, 54.5710941455064 ], [ -2.235475009293395, 54.571255517414833 ], [ -2.23524987544322, 54.57139955881059 ], [ -2.234851307314568, 54.571576675631739 ], [ -2.219222931598679, 54.57621844608942 ], [ -2.218938194007216, 54.576289421732284 ], [ -2.218486981672165, 54.576353091010525 ], [ -2.218177924385579, 54.576365904053311 ], [ -2.171763422640469, 54.576476440463622 ], [ -2.17126514015549, 54.576446109764547 ], [ -2.170944229465161, 54.576391555524644 ], [ -2.170640148308482, 54.576310773293216 ], [ -2.17022926650243, 54.576144232556047 ], [ -2.169993799366929, 54.576006322413789 ], [ -2.169794897126156, 54.575850183814083 ], [ -2.169636689553939, 54.575679058979965 ], [ -2.169482617547306, 54.575402112564831 ], [ -2.169434465228267, 54.575112408820942 ], [ -2.169494475114177, 54.574823453122868 ], [ -2.169593394358532, 54.574637904073072 ], [ -2.169825015297285, 54.574379826600534 ], [ -2.170146587247623, 54.574156647350257 ], [ -2.170543118946242, 54.573978769726068 ], [ -2.186077090804444, 54.569307357664208 ], [ -2.186365510047175, 54.569234537010061 ], [ -2.186668304727129, 54.569185206200366 ], [ -2.18722180412574, 54.569156917285511 ] ] ] } },
{ "type": "Feature", "properties": { "Moor": "Westerdale", "Count": "Tank", "Count_Type": "Core", "GWCT_Region": "NYM", "area_ha": 152.99660035988197, "uid": 28 }, "geometry": { "type": "Polygon", "coordinates": [ [ [ -0.964262228864674, 54.389727021203342 ], [ -0.987584280548547, 54.389945817681102 ], [ -0.988062478083357, 54.389979591840067 ], [ -0.988518276137977, 54.390070510929256 ], [ -0.988931853976668, 54.390214621309177 ], [ -0.989175135428119, 54.39033723852269 ], [ -0.98947964264108, 54.390555053259597 ], [ -0.989700121225478, 54.390804988375663 ], [ -0.989795524653101, 54.390984132567773 ], [ -0.989847387520774, 54.391169271415805 ], [ -0.990042804651001, 54.392399864103879 ], [ -0.990058774078347, 54.393816466716942 ], [ -0.989874788126557, 54.395124884225318 ], [ -0.989808401083181, 54.396339827934881 ], [ -0.989741200223509, 54.396622396104981 ], [ -0.989573592879178, 54.396890384447929 ], [ -0.989409603272207, 54.397054972650245 ], [ -0.989207508902889, 54.397204438426776 ], [ -0.988971340829778, 54.397335800185559 ], [ -0.988705809961933, 54.397446437453688 ], [ -0.988264179545596, 54.397568831035528 ], [ -0.987949434286656, 54.397619011620087 ], [ -0.987625711693511, 54.397642817985783 ], [ -0.964224219426249, 54.397425138399981 ], [ -0.963729208171734, 54.397389220893295 ], [ -0.963258995073773, 54.397292066423567 ], [ -0.962970228392175, 54.397195406390622 ], [ -0.962708307013042, 54.397075505478121 ], [ -0.962377505662476, 54.396857657209686 ], [ -0.962205052497188, 54.396691502391327 ], [ -0.962075372118794, 54.396512596527053 ], [ -0.961966696725633, 54.396228529809839 ], [ -0.961953674830432, 54.396034428500805 ], [ -0.962022124345748, 54.394784094519544 ], [ -0.962202636526996, 54.39352275180056 ], [ -0.962197660918617, 54.392369093478067 ], [ -0.96201258036649, 54.391198559884238 ], [ -0.962005776026441, 54.391006412280973 ], [ -0.962083276370163, 54.390722008840299 ], [ -0.96226252361597, 54.390453702297272 ], [ -0.962434688275945, 54.390289868409809 ], [ -0.962763200628979, 54.390074983921338 ], [ -0.963162425574469, 54.389905725209886 ], [ -0.963458971287475, 54.389822145284825 ], [ -0.963934341168395, 54.389744903745139 ], [ -0.964262228864674, 54.389727021203342 ] ] ] } }
]
}
