{
"type": "FeatureCollection",
"name": "count_areas_used",
"crs": { "type": "name", "properties": { "name": "urn:ogc:def:crs:OGC:1.3:CRS84" } },
"features": [
{ "type": "Feature", "properties": { "Moor": "Bollihope", "Count": "Pikestone Fell", "Count_Type": "Core", "GWCT_Region": "N.DALES", "area_ha": 100.33878346919761, "uid": 1 }, "geometry": { "type": "Polygon", "coordinates": [ [ [ -1.952631762905239, 54.696128261533609 ], [ -1.953950897034638, 54.697494991875182 ], [ -1.95511309546382, 54.698843416040802 ], [ -1.95523878288267, 54.699019339761051 ], [ -1.955320423071866, 54.699203764534474 ], [ -1.955356979585134, 54.699488265121445 ], [ -1.955323371548302, 54.699677657207154 ], [ -1.95518766251648, 54.699951903989472 ], [ -1.955042956176086, 54.70012285569166 ], [ -1.954751749341701, 54.700352952903295 ], [ -1.954513826971074, 54.700484334969531 ], [ -1.95424631564586, 54.700594992737145 ], [ -1.953954552069826, 54.700682718555591 ], [ -1.936252343138084, 54.705114732525608 ], [ -1.935940784298364, 54.705177936601167 ], [ -1.935616918113847, 54.705214982001898 ], [ -1.935287258901166, 54.705225123586168 ], [ -1.934796412233407, 54.705189594282842 ], [ -1.934481207193205, 54.705132775031736 ], [ -1.934042260941875, 54.705000698735894 ], [ -1.931860852484703, 54.70403134555977 ], [ -1.92937970174254, 54.703204039148858 ], [ -1.929106624583552, 54.703097409067801 ], [ -1.928752417972688, 54.702898398839075 ], [ -1.928560113566772, 54.702743555536074 ], [ -1.928407473202263, 54.702574543743218 ], [ -1.928297552468978, 54.702394747341508 ], [ -1.928217338473986, 54.70211274742924 ], [ -1.92824158677339, 54.701827292130027 ], [ -1.928369205196462, 54.701551213291786 ], [ -1.928509062877785, 54.701378532755264 ], [ -1.928794028638217, 54.701145197416153 ], [ -1.929157527402852, 54.700951899135696 ], [ -1.929583219203764, 54.700807326522259 ], [ -1.949782297349326, 54.695525439897764 ], [ -1.950218336348441, 54.695457569512691 ], [ -1.950677454515596, 54.695439898885617 ], [ -1.950994384627901, 54.695458532112923 ], [ -1.951454155874754, 54.695532920645618 ], [ -1.951741880122057, 54.695612117274337 ], [ -1.952131827061536, 54.695771615308651 ], [ -1.95235692949702, 54.695902177712185 ], [ -1.952631762905239, 54.696128261533609 ] ] ] } },
{ "type": "Feature", "properties": { "Moor": "Crossgill", "Count": "Dowks", "Count_Type": "Core", "GWCT_Region": "N.DALES", "area_ha": 78.467755036690718, "uid": 2 }, "geometry": { "type": "Polygon", "coordinates": [ [ [ -2.423765180460923, 54.732682688411955 ], [ -2.430986073491905, 54.741042111806088 ], [ -2.431157690562048, 54.741307226342762 ], [ -2.4312298203948, 54.741587231854403 ], [ -2.431220878016969, 54.741776086773903 ], [ -2.431166385562417, 54.741962363430787 ], [ -2.431001820613619, 54.742228971210466 ], [ -2.43074463710314, 54.742469813570153 ], [ -2.430527173897205, 54.742610753490716 ], [ -2.430277785672124, 54.742732718584719 ], [ -2.430001371429511, 54.742833312831422 ], [ -2.425884598251304, 54.744107752288521 ], [ -2.425414273447383, 54.744217156851974 ], [ -2.424914179236142, 54.744265124285626 ], [ -2.42457591056921, 54.744261725642843 ], [ -2.42424205895381, 54.744230021684331 ], [ -2.423919663717084, 54.744170680894364 ], [ -2.423615522557174, 54.744084954482446 ], [ -2.42333604817771, 54.743974649993881 ], [ -2.423087133050991, 54.743842093187851 ], [ -2.422782335157481, 54.743607762742037 ], [ -2.415482258896811, 54.73516169262308 ], [ -2.415310505390779, 54.734896639152204 ], [ -2.415238290200683, 54.734616666446712 ], [ -2.415268801674905, 54.734334143472502 ], [ -2.415400689769721, 54.734061551610559 ], [ -2.415628126057717, 54.73381093326028 ], [ -2.415828031562144, 54.733661584354991 ], [ -2.416062081462759, 54.733529890606661 ], [ -2.41648800082567, 54.733364271129261 ], [ -2.420582726406352, 54.732096690315593 ], [ -2.420854328859985, 54.732025152062086 ], [ -2.421285729687283, 54.731956896473839 ], [ -2.421749812767585, 54.731937876113456 ], [ -2.422082627072654, 54.731957432482432 ], [ -2.422564235712217, 54.732037835611791 ], [ -2.422863910415327, 54.732123871410714 ], [ -2.42326590243703, 54.732297147737825 ], [ -2.423494157083834, 54.732438672968556 ], [ -2.423765180460923, 54.732682688411955 ] ] ] } },
{ "type": "Feature", "properties": { "Moor": "Edmundbyers", "Count": "Waskerley", "Count_Type": "Core", "GWCT_Region": "N.DALES", "area_ha": 148.40393508112811, "uid": 8 }, "geometry": { "type": "Polygon", "coordinates": [ [ [ -1.924506712169776, 54.794085235911567 ], [ -1.954599260100142, 54.799976453062278 ], [ -1.955038201053655, 54.800117494586736 ], [ -1.955414727293495, 54.800309538065797 ], [ -1.95571139124223, 54.800543685039507 ], [ -1.95585783745311, 54.800717881693046 ], [ -1.955992968290892, 54.800997352961403 ], [ -1.956023984348685, 54.801190177362699 ], [ -1.955980302517997, 54.801479247853962 ], [ -1.955830542879749, 54.801756219898976 ], [ -1.955675003017911, 54.801927766993913 ], [ -1.955366153277446, 54.802156600200249 ], [ -1.954979681515589, 54.802341945749198 ], [ -1.954687630379936, 54.802437012313838 ], [ -1.95107555587612, 54.803248428110919 ], [ -1.948478646907507, 54.804207021880352 ], [ -1.948196366023556, 54.804296022912339 ], [ -1.947895581834551, 54.80436175876833 ], [ -1.947582007650738, 54.804402980798692 ], [ -1.947100733254925, 54.804417268749255 ], [ -1.946781495441927, 54.804394833479058 ], [ -1.946470629740249, 54.804347256128807 ], [ -1.916389460170329, 54.798430351832614 ], [ -1.91608377388453, 54.798355572358403 ], [ -1.915667317645117, 54.798198426581564 ], [ -1.915425927977884, 54.798066772287463 ], [ -1.91521932961603, 54.797916654621815 ], [ -1.914983603631921, 54.797663596959239 ], [ -1.914846102878973, 54.797387417067981 ], [ -1.914813077403526, 54.797100672702499 ], [ -1.91485004171505, 54.796910077191683 ], [ -1.914992090438975, 54.796634667121417 ], [ -1.915231971158024, 54.796382918445723 ], [ -1.915441025330074, 54.796233944000271 ], [ -1.915817741733101, 54.796046297658528 ], [ -1.916103559941462, 54.795948770843559 ], [ -1.919215799012675, 54.795051954539097 ], [ -1.922950316512003, 54.794097287229242 ], [ -1.923234557432082, 54.7940482945165 ], [ -1.923675308010851, 54.794014776022181 ], [ -1.924179901531389, 54.794036157059573 ], [ -1.924506712169776, 54.794085235911567 ] ] ] } },
{ "type": "Feature", "properties": { "Moor": "Geltsdale", "Count": "Middle", "Count_Type": "Core", "GWCT_Region": "N.DALES", "area_ha": 262.78363289318958, "uid": 17 }, "geometry": { "type": "Polygon", "coordinates": [ [ [ -2.593502361650954, 54.860924368952183 ], [ -2.640195118104995, 54.860664591020246 ], [ -2.640688697823589, 54.860692102192417 ], [ -2.641007329979356, 54.860743664126097 ], [ -2.641310140434219, 54.860820673798344 ], [ -2.641591056055349, 54.860921586736261 ], [ -2.641959200067775, 54.861113226245642 ], [ -2.642161964947338, 54.861264096227657 ], [ -2.642325749877515, 54.861429976222503 ], [ -2.642447269431579, 54.861607539278111 ], [ -2.642524085769303, 54.861793224078099 ], [ -2.642554657571794, 54.861983306361857 ], [ -2.642724931503565, 54.866520955445644 ], [ -2.642681444529921, 54.866810552482605 ], [ -2.642531318902209, 54.86708803812013 ], [ -2.642375242430942, 54.867259885606394 ], [ -2.642178009736867, 54.867417030892213 ], [ -2.641943706032889, 54.867556218719749 ], [ -2.641533544476654, 54.867725139591442 ], [ -2.641229225701529, 54.867807777821902 ], [ -2.640907489550246, 54.86786436412234 ], [ -2.64057500096117, 54.867893726265507 ], [ -2.593636236859711, 54.868101196437664 ], [ -2.593380513296828, 54.868098812920678 ], [ -2.59304881669826, 54.868072734991358 ], [ -2.592726996259902, 54.868019566408329 ], [ -2.592421668086593, 54.867940400237408 ], [ -2.592008204977047, 54.867776603846856 ], [ -2.591770511943177, 54.86764064837466 ], [ -2.591568974045691, 54.867486485181978 ], [ -2.591407734028167, 54.867317283523796 ], [ -2.591290106069749, 54.867136521771897 ], [ -2.591218507686674, 54.866947915898024 ], [ -2.591194410078265, 54.866755343075518 ], [ -2.591193074057227, 54.862177776143938 ], [ -2.591280413116545, 54.861895602224365 ], [ -2.591469208996977, 54.861630460509495 ], [ -2.591647399543259, 54.86146913068935 ], [ -2.591984218574475, 54.861258391110937 ], [ -2.592390666217841, 54.861093496736792 ], [ -2.59269134323607, 54.861012814807246 ], [ -2.593008790745302, 54.860957496881923 ], [ -2.593502361650954, 54.860924368952183 ] ] ] } },
{ "type": "Feature", "properties": { "Moor": "Moor House", "Count": "Behind House", "Count_Type": "Core", "GWCT_Region": "N.DALES", "area_ha": 99.233115942713454, "uid": 19 }, "geometry": { "type": "Polygon", "coordinates": [ [ [ -2.358292942725901, 54.682522516451549 ], [ -2.373743029831777, 54.682475820335625 ], [ -2.373825344812858, 54.691427725327109 ], [ -2.358371857467091, 54.691474436819938 ], [ -2.358292942725901, 54.682522516451549 ] ] ] } },
{ "type": "Feature", "properties": { "Moor": "Snilesworth", "Count": "Lodge", "Count_Type": "Core", "GWCT_Region": "NYM", "area_ha": 73.154839949656946, "uid": 23 }, "geometry": { "type": "Polygon", "coordinates": [ [ [ -1.225191815742309, 54.352975018801914 ], [ -1.247579214352741, 54.353116606140119 ], [ -1.24749669481273, 54.357634124510959 ], [ -1.225106840664725, 54.357492513738393 ], [ -1.225191815742309, 54.352975018801914 ] ] ] } }
]
}
